{
"type": "FeatureCollection",
"name": "wardddistrict9",
"crs": { "type": "name", "properties": { "name": "urn:ogc:def:crs:OGC:1.3:CRS84" } },
"features": [
{ "type": "Feature", "properties": { "fid": 1 }, "geometry": { "type": "Polygon", "coordinates": [ [ [ -74.051469042490183, 40.742865982562044 ], [ -74.053887654876263, 40.743811808574286 ], [ -74.053183902726403, 40.744781102051498 ], [ -74.055853371991702, 40.745754629059462 ], [ -74.055676810995408, 40.746280900319483 ], [ -74.0557121052627, 40.74650649846636 ], [ -74.055651333600238, 40.7467793498394 ], [ -74.055654299478931, 40.746861589271212 ], [ -74.055788803320979, 40.747578933033743 ], [ -74.055804255673308, 40.747706177884709 ], [ -74.052148116416546, 40.74633336684834 ], [ -74.052609227109087, 40.745714788703296 ], [ -74.050161252213144, 40.744707870004454 ], [ -74.051469042490183, 40.742865982562044 ] ] ] } }
]
}
