{
"type": "FeatureCollection",
"name": "wardadistrict32",
"crs": { "type": "name", "properties": { "name": "urn:ogc:def:crs:OGC:1.3:CRS84" } },
"features": [
{ "type": "Feature", "properties": { "fid": 1 }, "geometry": { "type": "Polygon", "coordinates": [ [ [ -74.047950123703188, 40.699862101355052 ], [ -74.041773593203189, 40.704646375806504 ], [ -74.038551055551025, 40.706071412407368 ], [ -74.034724292089066, 40.705715156115737 ], [ -74.034254338681464, 40.709023176939972 ], [ -74.051172661355352, 40.711160579926428 ], [ -74.050635571746682, 40.711516807087321 ], [ -74.050904116551024, 40.712025699725487 ], [ -74.051901166546116, 40.712099640240197 ], [ -74.052473719029024, 40.71220623488778 ], [ -74.055647869636033, 40.712495562356736 ], [ -74.056844549357962, 40.715645190312202 ], [ -74.06151413168125, 40.712318474091994 ], [ -74.060801758574272, 40.711748498436599 ], [ -74.059634258204497, 40.712648457767699 ], [ -74.058862520671923, 40.712138482306877 ], [ -74.060030021041683, 40.711268515152931 ], [ -74.059377012360287, 40.710803528047428 ], [ -74.060651427250264, 40.709898877889287 ], [ -74.055971897770661, 40.705936827555838 ], [ -74.048139085349518, 40.699649453994596 ], [ -74.047950123703188, 40.699862101355052 ] ] ] } }
]
}
