{
"type": "FeatureCollection",
"name": "wardcdistrict24",
"crs": { "type": "name", "properties": { "name": "urn:ogc:def:crs:OGC:1.3:CRS84" } },
"features": [
{ "type": "Feature", "properties": { "fid": 1 }, "geometry": { "type": "Polygon", "coordinates": [ [ [ -74.058752381258742, 40.737265425205607 ], [ -74.058724409340513, 40.73742697104462 ], [ -74.057416297140932, 40.73676628230362 ], [ -74.05688580718828, 40.73731870077701 ], [ -74.058634772514353, 40.738288528924315 ], [ -74.055767142525355, 40.740974487729744 ], [ -74.055249781584337, 40.741757059724165 ], [ -74.056552410424658, 40.741730094226398 ], [ -74.056551144927852, 40.74182888889699 ], [ -74.057314768392985, 40.742252050600371 ], [ -74.05713101352076, 40.742511918536131 ], [ -74.059205886591741, 40.743281050388433 ], [ -74.061842307649243, 40.739539097180142 ], [ -74.058752381258742, 40.737265425205607 ] ] ] } }
]
}
