{
"type": "FeatureCollection",
"name": "wardddistrict13",
"crs": { "type": "name", "properties": { "name": "urn:ogc:def:crs:OGC:1.3:CRS84" } },
"features": [
{ "type": "Feature", "properties": { "fid": 1 }, "geometry": { "type": "Polygon", "coordinates": [ [ [ -74.059473179234331, 40.746120016022694 ], [ -74.057863697352033, 40.745470224238332 ], [ -74.056116803450976, 40.747938377269762 ], [ -74.055515048988269, 40.749024831740009 ], [ -74.054059941713959, 40.75114940295159 ], [ -74.055658420061974, 40.751795252258795 ], [ -74.059473179234331, 40.746120016022694 ] ] ] } }
]
}
