{
"type": "FeatureCollection",
"name": "wardddistrict21",
"crs": { "type": "name", "properties": { "name": "urn:ogc:def:crs:OGC:1.3:CRS84" } },
"features": [
{ "type": "Feature", "properties": { "fid": 1 }, "geometry": { "type": "Polygon", "coordinates": [ [ [ -74.047690993861949, 40.748636923161335 ], [ -74.053923502332992, 40.751112622257395 ], [ -74.054732752124366, 40.74983056663028 ], [ -74.050912242067767, 40.748267799273556 ], [ -74.0504437759339, 40.748833012024463 ], [ -74.048161595521705, 40.747905008300442 ], [ -74.047690993861949, 40.748636923161335 ] ] ] } }
]
}
