{
"type": "FeatureCollection",
"name": "wardfdistrict17",
"crs": { "type": "name", "properties": { "name": "urn:ogc:def:crs:OGC:1.3:CRS84" } },
"features": [
{ "type": "Feature", "properties": { "fid": 1 }, "geometry": { "type": "Polygon", "coordinates": [ [ [ -74.070681435550924, 40.720141336387158 ], [ -74.070392895936124, 40.720662206114419 ], [ -74.067378406375738, 40.719320806671611 ], [ -74.067517765418756, 40.718720756043574 ], [ -74.067621304612203, 40.718191559133111 ], [ -74.067510007269888, 40.717638211611224 ], [ -74.067360971181202, 40.716772751414211 ], [ -74.067220900375162, 40.715833400025119 ], [ -74.06716627307371, 40.71541121618737 ], [ -74.067225027134938, 40.715026736459933 ], [ -74.067196233030742, 40.714753068552952 ], [ -74.067428040683339, 40.714437962389134 ], [ -74.068034708341983, 40.714759942159432 ], [ -74.06863641363509, 40.715023115971277 ], [ -74.069571299192091, 40.715406946720179 ], [ -74.070176986761894, 40.715649763392229 ], [ -74.071005454780334, 40.715988346193896 ], [ -74.071270018173323, 40.716038884415731 ], [ -74.070889968756887, 40.716578623550653 ], [ -74.070767560190262, 40.716951779481974 ], [ -74.070504853772704, 40.717621188814491 ], [ -74.070224278711237, 40.718101370602255 ], [ -74.069985507234591, 40.718423997269198 ], [ -74.069720881920233, 40.718710434640059 ], [ -74.069293107105082, 40.719157423668314 ], [ -74.069172741277924, 40.719239580494531 ], [ -74.069075247741068, 40.719345108902679 ], [ -74.070720236947906, 40.72008329491328 ], [ -74.070681435550924, 40.720141336387158 ] ] ] } }
]
}
