{
"type": "FeatureCollection",
"name": "wardcdistrict27",
"crs": { "type": "name", "properties": { "name": "urn:ogc:def:crs:OGC:1.3:CRS84" } },
"features": [
{ "type": "Feature", "properties": { "fid": 1 }, "geometry": { "type": "Polygon", "coordinates": [ [ [ -74.051489610302625, 40.742787823575298 ], [ -74.051073195961422, 40.743290276546695 ], [ -74.048435537814072, 40.742177962966892 ], [ -74.049288429404882, 40.740792175012729 ], [ -74.05197246115533, 40.74211937845039 ], [ -74.053051579388054, 40.740714273525995 ], [ -74.051547796129924, 40.739849151143027 ], [ -74.050836134970183, 40.740599177064702 ], [ -74.050747777153902, 40.740558937363978 ], [ -74.050583702976482, 40.740293458698403 ], [ -74.049450302821199, 40.739590770412626 ], [ -74.048620057803916, 40.740533478683254 ], [ -74.047675236105533, 40.741913858883457 ], [ -74.051051024121861, 40.743277932480524 ], [ -74.051479803047556, 40.742716694847189 ], [ -74.048953636846548, 40.741616696098319 ], [ -74.048553541594742, 40.742170033101665 ], [ -74.051105148720382, 40.743306076149992 ], [ -74.051489610302625, 40.742787823575298 ] ] ] } }
]
}
