{
"type": "FeatureCollection",
"name": "wardbdistrict13",
"crs": { "type": "name", "properties": { "name": "urn:ogc:def:crs:OGC:1.3:CRS84" } },
"features": [
{ "type": "Feature", "properties": { "fid": 1 }, "geometry": { "type": "Polygon", "coordinates": [ [ [ -74.085440655420001, 40.716853787149084 ], [ -74.088749894591274, 40.718659124748214 ], [ -74.089331738841139, 40.718107881818675 ], [ -74.092422786418709, 40.719706473738562 ], [ -74.092804621707714, 40.719100115805261 ], [ -74.086677074451018, 40.715833956484225 ], [ -74.085440655420001, 40.716853787149084 ] ] ] } }
]
}
