{
"type": "FeatureCollection",
"name": "wardadistrict34",
"crs": { "type": "name", "properties": { "name": "urn:ogc:def:crs:OGC:1.3:CRS84" } },
"features": [
{ "type": "Feature", "properties": { "fid": 1 }, "geometry": { "type": "Polygon", "coordinates": [ [ [ -74.066612427879463, 40.709658760336943 ], [ -74.069247362940246, 40.710362738890716 ], [ -74.066504438737653, 40.714340896429057 ], [ -74.064603829841332, 40.71306398287436 ], [ -74.063307960139298, 40.713817037420448 ], [ -74.062076883922373, 40.712916645119101 ], [ -74.066612427879463, 40.709658760336943 ] ] ] } }
]
}
