{
"type": "FeatureCollection",
"name": "wardadistrict24",
"crs": { "type": "name", "properties": { "name": "urn:ogc:def:crs:OGC:1.3:CRS84" } },
"features": [
{ "type": "Feature", "properties": { "fid": 1 }, "geometry": { "type": "Polygon", "coordinates": [ [ [ -74.084893538997633, 40.699496458025386 ], [ -74.09069478588664, 40.703232422703806 ], [ -74.089322447912892, 40.704178203306974 ], [ -74.087996894188237, 40.703338823692128 ], [ -74.08865187367573, 40.70283046188063 ], [ -74.08430093850896, 40.699945730684583 ], [ -74.084893538997633, 40.699496458025386 ] ] ] } }
]
}
