{
"type": "FeatureCollection",
"name": "wardadistrict29",
"crs": { "type": "name", "properties": { "name": "urn:ogc:def:crs:OGC:1.3:CRS84" } },
"features": [
{ "type": "Feature", "properties": { "fid": 1 }, "geometry": { "type": "Polygon", "coordinates": [ [ [ -74.077376869641384, 40.700395000313648 ], [ -74.071372891006249, 40.704473756991248 ], [ -74.07330663996926, 40.705892396418889 ], [ -74.075131225684345, 40.703445224510475 ], [ -74.075645852424515, 40.703705314684171 ], [ -74.077174137895284, 40.701896484719178 ], [ -74.079934408592479, 40.704036337072694 ], [ -74.081166393818918, 40.702794994632733 ], [ -74.078733612865449, 40.701057076349201 ], [ -74.078296959873796, 40.701104367242777 ], [ -74.077376869641384, 40.70037135461925 ], [ -74.077392464391096, 40.70037135461925 ], [ -74.077376869641384, 40.700395000313648 ] ] ] } }
]
}
