{
"type": "FeatureCollection",
"name": "wardcdistrict13",
"crs": { "type": "name", "properties": { "name": "urn:ogc:def:crs:OGC:1.3:CRS84" } },
"features": [
{ "type": "Feature", "properties": { "fid": 1 }, "geometry": { "type": "Polygon", "coordinates": [ [ [ -74.060051601024981, 40.722402452801227 ], [ -74.055373790581001, 40.720947817009034 ], [ -74.05478777816387, 40.722906637036935 ], [ -74.059703072351908, 40.724788079086593 ], [ -74.060390741743674, 40.726050828204151 ], [ -74.060549820118439, 40.72604387541611 ], [ -74.060753189500858, 40.725926236739916 ], [ -74.061083658163369, 40.725718150827596 ], [ -74.060248167498983, 40.724908517113619 ], [ -74.059856930724919, 40.724770257172715 ], [ -74.060986324394179, 40.723554017933935 ], [ -74.059717283200499, 40.722771630997784 ], [ -74.059786962461274, 40.722561617039247 ], [ -74.059905546318845, 40.722368885554424 ], [ -74.059925108157557, 40.722375798807718 ], [ -74.060051601024981, 40.722402452801227 ] ] ] } }
]
}
