{
"type": "FeatureCollection",
"name": "wardddistrict16",
"crs": { "type": "name", "properties": { "name": "urn:ogc:def:crs:OGC:1.3:CRS84" } },
"features": [
{ "type": "Feature", "properties": { "fid": 1 }, "geometry": { "type": "Polygon", "coordinates": [ [ [ -74.052146470330442, 40.746344202982513 ], [ -74.055838741808429, 40.747739927059186 ], [ -74.056030221081372, 40.747853240591844 ], [ -74.055746049332683, 40.748445504264126 ], [ -74.054781155824074, 40.749817220189321 ], [ -74.052450571712157, 40.748902576827533 ], [ -74.053375870274039, 40.747562524083293 ], [ -74.051728076203062, 40.746942344667389 ], [ -74.052146470330442, 40.746344202982513 ] ] ] } }
]
}
