{
"type": "FeatureCollection",
"name": "wardbdistrict23",
"crs": { "type": "name", "properties": { "name": "urn:ogc:def:crs:OGC:1.3:CRS84" } },
"features": [
{ "type": "Feature", "properties": { "fid": 1 }, "geometry": { "type": "Polygon", "coordinates": [ [ [ -74.075734309173654, 40.722190327473278 ], [ -74.074141055239792, 40.724355461157209 ], [ -74.077190213630473, 40.725708633943221 ], [ -74.076475996349771, 40.726728699855656 ], [ -74.07747864753226, 40.727155457486198 ], [ -74.079126841256965, 40.725052869028922 ], [ -74.078055515335933, 40.724553234281096 ], [ -74.07882467240745, 40.723647636740402 ], [ -74.076888044780929, 40.722794073755232 ], [ -74.076901779728644, 40.722565067189507 ], [ -74.075761779069069, 40.722107051694259 ], [ -74.075734309173654, 40.722190327473278 ] ] ] } }
]
}
