{
"type": "FeatureCollection",
"name": "wardedistrict22",
"crs": { "type": "name", "properties": { "name": "urn:ogc:def:crs:OGC:1.3:CRS84" } },
"features": [
{ "type": "Feature", "properties": { "fid": 1 }, "geometry": { "type": "Polygon", "coordinates": [ [ [ -74.043185745000713, 40.728266311502431 ], [ -74.041674183435916, 40.728142102678731 ], [ -74.041692395021016, 40.727935087457354 ], [ -74.040089775530618, 40.72786608224046 ], [ -74.03934310054079, 40.732875675010227 ], [ -74.044059901086399, 40.7332896740688 ], [ -74.044551613884593, 40.730446828646642 ], [ -74.042930782809066, 40.730253621151874 ], [ -74.043149321830484, 40.72832151534967 ], [ -74.043185745000713, 40.728266311502431 ] ] ] } }
]
}
