{
"type": "FeatureCollection",
"name": "wardadistrict12",
"crs": { "type": "name", "properties": { "name": "urn:ogc:def:crs:OGC:1.3:CRS84" } },
"features": [
{ "type": "Feature", "properties": { "fid": 1 }, "geometry": { "type": "Polygon", "coordinates": [ [ [ -74.101891816172483, 40.69094787726597 ], [ -74.097197796512276, 40.688866728946529 ], [ -74.097650044253612, 40.688216356767214 ], [ -74.094406336315672, 40.687045670849159 ], [ -74.093564219831791, 40.687790655176471 ], [ -74.096807927769731, 40.691645520394651 ], [ -74.098289428991407, 40.6898127135129 ], [ -74.098944408478872, 40.690013733503193 ], [ -74.09908476122618, 40.690427596279626 ], [ -74.099162734974698, 40.690581316084767 ], [ -74.099474629968725, 40.691101595870876 ], [ -74.09986449871127, 40.691101595870876 ], [ -74.100441504450231, 40.69079415830646 ], [ -74.101345999932931, 40.691598222786226 ], [ -74.101891816172483, 40.690971526305191 ], [ -74.101891816172483, 40.69094787726597 ] ] ] } }
]
}
