{
"type": "FeatureCollection",
"name": "wardddistrict14",
"crs": { "type": "name", "properties": { "name": "urn:ogc:def:crs:OGC:1.3:CRS84" } },
"features": [
{ "type": "Feature", "properties": { "fid": 1 }, "geometry": { "type": "Polygon", "coordinates": [ [ [ -74.060881096768696, 40.74901251997278 ], [ -74.067846774494569, 40.76202653453268 ], [ -74.066236342971848, 40.762705771878018 ], [ -74.066114251145791, 40.762784408510925 ], [ -74.065524004665292, 40.76328619367191 ], [ -74.065182331399512, 40.763601815210883 ], [ -74.06452594520249, 40.763775844356687 ], [ -74.063837912831147, 40.763674890631187 ], [ -74.063484999009333, 40.763377757309541 ], [ -74.062870906988323, 40.762917351900732 ], [ -74.062525348607849, 40.762673545778675 ], [ -74.061824029037751, 40.762354819478155 ], [ -74.061435998714984, 40.762288796069356 ], [ -74.060526531229726, 40.762373442272327 ], [ -74.060071856742539, 40.762567984745033 ], [ -74.060077106285704, 40.762864088243582 ], [ -74.059980417397156, 40.763195212183682 ], [ -74.059723865782274, 40.763611922771375 ], [ -74.059674156909523, 40.76404080626849 ], [ -74.059862313994429, 40.76504071504678 ], [ -74.059869965712949, 40.765855106593108 ], [ -74.058809651648346, 40.766576400829969 ], [ -74.058322767283471, 40.766932035775589 ], [ -74.05741229090232, 40.768193230811868 ], [ -74.057044339516281, 40.768834354217908 ], [ -74.053804793920449, 40.763652132124655 ], [ -74.05326416820624, 40.761614516865805 ], [ -74.052021273281525, 40.760587014038535 ], [ -74.050713958601406, 40.759881739449924 ], [ -74.049603343109681, 40.75950975644691 ], [ -74.049597722831678, 40.759203359991417 ], [ -74.049460771984357, 40.758794765503637 ], [ -74.049232545132512, 40.758490915573432 ], [ -74.048899502853374, 40.75836820692907 ], [ -74.051336238746671, 40.754997430118763 ], [ -74.05459699223934, 40.756250697237739 ], [ -74.057484636016028, 40.752430209652601 ], [ -74.060195214348582, 40.749724189433636 ], [ -74.060689276388473, 40.748965054043815 ], [ -74.060910770757815, 40.748931665056844 ], [ -74.060881096768696, 40.74901251997278 ] ] ] } }
]
}
