{
"type": "FeatureCollection",
"name": "wardfdistrict20",
"crs": { "type": "name", "properties": { "name": "urn:ogc:def:crs:OGC:1.3:CRS84" } },
"features": [
{ "type": "Feature", "properties": { "fid": 1 }, "geometry": { "type": "Polygon", "coordinates": [ [ [ -74.06730246480538, 40.715809284246241 ], [ -74.062512096907057, 40.716951661898229 ], [ -74.060952736968858, 40.715719655187506 ], [ -74.058213158329266, 40.717658338494452 ], [ -74.059038686081195, 40.717759443652405 ], [ -74.058976929832156, 40.718243416840046 ], [ -74.060351433832068, 40.718680799138887 ], [ -74.059274878166818, 40.720648217395279 ], [ -74.06272206362695, 40.721826057204751 ], [ -74.064936559678543, 40.719429102872304 ], [ -74.065889355160337, 40.719777479527679 ], [ -74.06665145545179, 40.71863170972717 ], [ -74.067435200259339, 40.718778040232188 ], [ -74.067674013016855, 40.718230765421985 ], [ -74.06730246480538, 40.715809284246241 ] ] ] } }
]
}
