{
"type": "FeatureCollection",
"name": "wardddistrict29",
"crs": { "type": "name", "properties": { "name": "urn:ogc:def:crs:OGC:1.3:CRS84" } },
"features": [
{ "type": "Feature", "properties": { "fid": 1 }, "geometry": { "type": "Polygon", "coordinates": [ [ [ -74.046686014219063, 40.754431746191891 ], [ -74.044312498546873, 40.753456335437583 ], [ -74.04327226341897, 40.754885053662832 ], [ -74.043649170919849, 40.756525106789191 ], [ -74.044953089730996, 40.756985680203108 ], [ -74.04576843384389, 40.757228013292192 ], [ -74.046543649711055, 40.756131931143003 ], [ -74.045788765781239, 40.755758736502024 ], [ -74.046686014219063, 40.754431746191891 ] ] ] } }
]
}
