{
"type": "FeatureCollection",
"name": "wardedistrict3",
"crs": { "type": "name", "properties": { "name": "urn:ogc:def:crs:OGC:1.3:CRS84" } },
"features": [
{ "type": "Feature", "properties": { "fid": 1 }, "geometry": { "type": "Polygon", "coordinates": [ [ [ -74.037066652400995, 40.717666324362625 ], [ -74.036465670092099, 40.721158433667483 ], [ -74.034243856707661, 40.720523518329188 ], [ -74.033897836590441, 40.720275071548258 ], [ -74.034498818899337, 40.71714180200253 ], [ -74.037066652400995, 40.717666324362625 ] ] ] } }
]
}
