{
"type": "FeatureCollection",
"name": "wardddistrict3",
"crs": { "type": "name", "properties": { "name": "urn:ogc:def:crs:OGC:1.3:CRS84" } },
"features": [
{ "type": "Feature", "properties": { "fid": 1 }, "geometry": { "type": "Polygon", "coordinates": [ [ [ -74.044623276234546, 40.730763616970592 ], [ -74.052035981389409, 40.731474505957451 ], [ -74.049202821985091, 40.733945088380914 ], [ -74.048331910923011, 40.735099080290496 ], [ -74.043872838792652, 40.736162708365413 ], [ -74.044502978827239, 40.730741411426642 ], [ -74.044623276234546, 40.730763616970592 ] ] ] } }
]
}
