{
"type": "FeatureCollection",
"name": "wardbdistrict18",
"crs": { "type": "name", "properties": { "name": "urn:ogc:def:crs:OGC:1.3:CRS84" } },
"features": [
{ "type": "Feature", "properties": { "fid": 1 }, "geometry": { "type": "Polygon", "coordinates": [ [ [ -74.08439515403343, 40.723943934656951 ], [ -74.083358743963316, 40.72388881494588 ], [ -74.0821223249323, 40.72409551362702 ], [ -74.081322289088703, 40.724357331034938 ], [ -74.08083135800284, 40.724247092251872 ], [ -74.080449522713849, 40.724371110869974 ], [ -74.078903998925071, 40.723654555664559 ], [ -74.080485887979478, 40.721752890985705 ], [ -74.074812906543002, 40.718996758788393 ], [ -74.075358385527281, 40.718514423921064 ], [ -74.085449746736387, 40.72264860937856 ], [ -74.08439515403343, 40.723943934656951 ] ] ] } }
]
}
