{
"type": "FeatureCollection",
"name": "wardbdistrict3",
"crs": { "type": "name", "properties": { "name": "urn:ogc:def:crs:OGC:1.3:CRS84" } },
"features": [
{ "type": "Feature", "properties": { "fid": 1 }, "geometry": { "type": "Polygon", "coordinates": [ [ [ -74.090139681074746, 40.703739786792291 ], [ -74.087284249151864, 40.705735978776545 ], [ -74.088850847988951, 40.706788798550207 ], [ -74.089184166890448, 40.706131840963934 ], [ -74.091672948021696, 40.707791067510215 ], [ -74.092850674807011, 40.706839333480723 ], [ -74.0899952428841, 40.704935824617316 ], [ -74.090095238554568, 40.703882975550982 ], [ -74.090139681074746, 40.703739786792291 ] ] ] } }
]
}
