{
"type": "FeatureCollection",
"name": "wardbdistrict26",
"crs": { "type": "name", "properties": { "name": "urn:ogc:def:crs:OGC:1.3:CRS84" } },
"features": [
{ "type": "Feature", "properties": { "fid": 1 }, "geometry": { "type": "Polygon", "coordinates": [ [ [ -74.071036957058354, 40.722965828162472 ], [ -74.070171655352894, 40.723965117740725 ], [ -74.075706839278311, 40.726421640843242 ], [ -74.076379851715885, 40.725380752293788 ], [ -74.071036957058354, 40.722934600121384 ], [ -74.071036957058354, 40.722965828162472 ] ] ] } }
]
}
