{
"type": "FeatureCollection",
"name": "wardddistrict28",
"crs": { "type": "name", "properties": { "name": "urn:ogc:def:crs:OGC:1.3:CRS84" } },
"features": [
{ "type": "Feature", "properties": { "fid": 1 }, "geometry": { "type": "Polygon", "coordinates": [ [ [ -74.046710216068945, 40.754425073433524 ], [ -74.045812967631107, 40.755752063876834 ], [ -74.046623951809096, 40.756099410687625 ], [ -74.045802556651211, 40.757270508242179 ], [ -74.048907777724736, 40.758428207673596 ], [ -74.050521917372564, 40.755969363253953 ], [ -74.046710216068945, 40.754425073433524 ] ] ] } }
]
}
