{
"type": "FeatureCollection",
"name": "wardddistrict23",
"crs": { "type": "name", "properties": { "name": "urn:ogc:def:crs:OGC:1.3:CRS84" } },
"features": [
{ "type": "Feature", "properties": { "fid": 1 }, "geometry": { "type": "Polygon", "coordinates": [ [ [ -74.048315437607428, 40.747426542712191 ], [ -74.045792306459646, 40.746481902811546 ], [ -74.044582280046825, 40.748398821756403 ], [ -74.042991698428494, 40.747783638374592 ], [ -74.041931710268784, 40.749342506358801 ], [ -74.044501065148864, 40.750326268426292 ], [ -74.045418578279154, 40.748770372543888 ], [ -74.045419089939827, 40.748671603787741 ], [ -74.047001975009692, 40.749299282926337 ], [ -74.048315437607428, 40.747426542712191 ] ] ] } }
]
}
