{
"type": "FeatureCollection",
"name": "wardbdistrict9",
"crs": { "type": "name", "properties": { "name": "urn:ogc:def:crs:OGC:1.3:CRS84" } },
"features": [
{ "type": "Feature", "properties": { "fid": 1 }, "geometry": { "type": "Polygon", "coordinates": [ [ [ -74.080712785768213, 40.714178534887296 ], [ -74.078209300673848, 40.716686336665049 ], [ -74.079907644833341, 40.717525427954996 ], [ -74.080121510394179, 40.717439612285851 ], [ -74.08056182184292, 40.717210769960658 ], [ -74.080863749693492, 40.716896110479048 ], [ -74.083568520021586, 40.718354973720125 ], [ -74.084499464227534, 40.717525427954996 ], [ -74.081530507030195, 40.715999799561345 ], [ -74.08248661189036, 40.715055799483714 ], [ -74.080712785768213, 40.714178534887296 ] ] ] } }
]
}
