{
"type": "FeatureCollection",
"name": "wardcdistrict21",
"crs": { "type": "name", "properties": { "name": "urn:ogc:def:crs:OGC:1.3:CRS84" } },
"features": [
{ "type": "Feature", "properties": { "fid": 1 }, "geometry": { "type": "Polygon", "coordinates": [ [ [ -74.059513145248431, 40.73264381771115 ], [ -74.058053019559139, 40.733391127888126 ], [ -74.057029739819967, 40.734202555769485 ], [ -74.058053322765502, 40.733332584738292 ], [ -74.056966875599826, 40.734333734173788 ], [ -74.059159673444185, 40.734891986719447 ], [ -74.059854647134586, 40.735029272648752 ], [ -74.05950625083068, 40.736079139094208 ], [ -74.060999989811947, 40.73626406046899 ], [ -74.061102808321209, 40.735768046699746 ], [ -74.061149023909863, 40.735576851683007 ], [ -74.06217201326541, 40.735694693330593 ], [ -74.061748321972303, 40.737602160765405 ], [ -74.062642182123795, 40.737620239177659 ], [ -74.063108134500595, 40.735411905791416 ], [ -74.063015387294328, 40.734982128398137 ], [ -74.063030177529441, 40.734455001086744 ], [ -74.062638070985187, 40.733757025823444 ], [ -74.062761005074336, 40.733015452922594 ], [ -74.059513145248431, 40.73264381771115 ] ] ] } }
]
}
