{
"type": "FeatureCollection",
"name": "wardddistrict15",
"crs": { "type": "name", "properties": { "name": "urn:ogc:def:crs:OGC:1.3:CRS84" } },
"features": [
{ "type": "Feature", "properties": { "fid": 1 }, "geometry": { "type": "Polygon", "coordinates": [ [ [ -74.053118078595077, 40.752331310490945 ], [ -74.053924102294317, 40.752654089766331 ], [ -74.052237401538505, 40.755247251967965 ], [ -74.054642815609014, 40.756203461198247 ], [ -74.057488669657701, 40.752429097492751 ], [ -74.054051118147001, 40.75109300742421 ], [ -74.053118078595077, 40.752331310490945 ] ] ] } }
]
}
