{
"type": "FeatureCollection",
"name": "wardddistrict6",
"crs": { "type": "name", "properties": { "name": "urn:ogc:def:crs:OGC:1.3:CRS84" } },
"features": [
{ "type": "Feature", "properties": { "fid": 1 }, "geometry": { "type": "Polygon", "coordinates": [ [ [ -74.045973666729964, 40.741325376726536 ], [ -74.047735314790145, 40.741902098214879 ], [ -74.048469615335335, 40.742156452263664 ], [ -74.049330856887167, 40.74254192515815 ], [ -74.048374972312814, 40.743975304655606 ], [ -74.047610048137926, 40.745131043815071 ], [ -74.045098676807925, 40.744248884713087 ], [ -74.045978307739816, 40.742884991831644 ], [ -74.045092893965844, 40.742582327423683 ], [ -74.045973666729964, 40.741325376726536 ] ] ] } }
]
}
