{
"type": "FeatureCollection",
"name": "wardbdistrict22",
"crs": { "type": "name", "properties": { "name": "urn:ogc:def:crs:OGC:1.3:CRS84" } },
"features": [
{ "type": "Feature", "properties": { "fid": 1 }, "geometry": { "type": "Polygon", "coordinates": [ [ [ -74.080280576864254, 40.72654134198266 ], [ -74.078165394917562, 40.729205937692122 ], [ -74.081434312471529, 40.730725542157138 ], [ -74.08220346954306, 40.729351654693048 ], [ -74.080747565086227, 40.728539798767194 ], [ -74.081763951216445, 40.727186683546826 ], [ -74.080280576864254, 40.72654134198266 ] ] ] } }
]
}
