{
"type": "FeatureCollection",
"name": "wardadistrict19",
"crs": { "type": "name", "properties": { "name": "urn:ogc:def:crs:OGC:1.3:CRS84" } },
"features": [
{ "type": "Feature", "properties": { "fid": 1 }, "geometry": { "type": "Polygon", "coordinates": [ [ [ -74.089696721905725, 40.696126816496978 ], [ -74.087996894188237, 40.69729734287418 ], [ -74.089961832650658, 40.698928951387906 ], [ -74.089587558657811, 40.699259997513998 ], [ -74.092082718610087, 40.701518161129449 ], [ -74.092191881857985, 40.698964420694395 ], [ -74.089696721905725, 40.696126816496978 ] ] ] } }
]
}
