{
"type": "FeatureCollection",
"name": "wardbdistrict5",
"crs": { "type": "name", "properties": { "name": "urn:ogc:def:crs:OGC:1.3:CRS84" } },
"features": [
{ "type": "Feature", "properties": { "fid": 1 }, "geometry": { "type": "Polygon", "coordinates": [ [ [ -74.087073147180888, 40.708111116605671 ], [ -74.085806535355175, 40.709206009773858 ], [ -74.085473216453664, 40.709930313822241 ], [ -74.090206344855062, 40.71316431949429 ], [ -74.092584019685788, 40.711665242644862 ], [ -74.087073147180888, 40.708111116605671 ] ] ] } }
]
}
