{
"type": "FeatureCollection",
"name": "wardfdistrict11",
"crs": { "type": "name", "properties": { "name": "urn:ogc:def:crs:OGC:1.3:CRS84" } },
"features": [
{ "type": "Feature", "properties": { "fid": 1 }, "geometry": { "type": "Polygon", "coordinates": [ [ [ -74.078820226982174, 40.710946241670307 ], [ -74.076530831370349, 40.709573810736472 ], [ -74.076446244111878, 40.709809790211011 ], [ -74.075479520981943, 40.709476439106069 ], [ -74.07459799367129, 40.711008373112293 ], [ -74.073929528482722, 40.711395073489264 ], [ -74.072947629290027, 40.712458012908996 ], [ -74.075873549315261, 40.714055870211475 ], [ -74.078820226982174, 40.710946241670307 ] ] ] } }
]
}
