{
"type": "FeatureCollection",
"name": "wardadistrict5",
"crs": { "type": "name", "properties": { "name": "urn:ogc:def:crs:OGC:1.3:CRS84" } },
"features": [
{ "type": "Feature", "properties": { "fid": 1 }, "geometry": { "type": "Polygon", "coordinates": [ [ [ -74.096304997091835, 40.698420555919633 ], [ -74.099299189034554, 40.702014710400292 ], [ -74.099049673039332, 40.703610736556698 ], [ -74.097926851060805, 40.704119092412753 ], [ -74.095743586102571, 40.701577274331981 ], [ -74.097349845321844, 40.700820621377645 ], [ -74.095868344100197, 40.699118120804265 ], [ -74.096304997091835, 40.698420555919633 ] ] ] } }
]
}
