{
"type": "FeatureCollection",
"name": "wardbdistrict32",
"crs": { "type": "name", "properties": { "name": "urn:ogc:def:crs:OGC:1.3:CRS84" } },
"features": [
{ "type": "Feature", "properties": { "fid": 1 }, "geometry": { "type": "Polygon", "coordinates": [ [ [ -74.065474303237551, 40.722049799535782 ], [ -74.064622736479791, 40.721550142243956 ], [ -74.065872616721023, 40.719874181021623 ], [ -74.06492490532932, 40.719384917303721 ], [ -74.06173839746161, 40.722955418817079 ], [ -74.064279362787161, 40.723736115204211 ], [ -74.065474303237551, 40.722049799535782 ] ] ] } }
]
}
