{
"type": "FeatureCollection",
"name": "wardddistrict4",
"crs": { "type": "name", "properties": { "name": "urn:ogc:def:crs:OGC:1.3:CRS84" } },
"features": [
{ "type": "Feature", "properties": { "fid": 1 }, "geometry": { "type": "Polygon", "coordinates": [ [ [ -74.043528881862414, 40.736264490191964 ], [ -74.043358074857252, 40.736498504797837 ], [ -74.044110378068694, 40.737779357075475 ], [ -74.045848817972683, 40.738089077508278 ], [ -74.046708161797127, 40.737367519068663 ], [ -74.047088095208863, 40.737359653613936 ], [ -74.04741455314408, 40.737525751325066 ], [ -74.047708178242772, 40.738137012285364 ], [ -74.047763314424984, 40.738461000765867 ], [ -74.04940307805316, 40.739649364849271 ], [ -74.050789494520302, 40.738180228048591 ], [ -74.051166788734974, 40.737044739878584 ], [ -74.049253538200261, 40.736104818160463 ], [ -74.049769607308718, 40.735353303203695 ], [ -74.048669194626129, 40.734812224808756 ], [ -74.048343655926942, 40.735123531728625 ], [ -74.043528881862414, 40.736264490191964 ] ] ] } }
]
}
