{
"type": "FeatureCollection",
"name": "wardcdistrict16",
"crs": { "type": "name", "properties": { "name": "urn:ogc:def:crs:OGC:1.3:CRS84" } },
"features": [
{ "type": "Feature", "properties": { "fid": 1 }, "geometry": { "type": "Polygon", "coordinates": [ [ [ -74.058292298276754, 40.728377426166162 ], [ -74.055546995964264, 40.730439273747038 ], [ -74.05566963966973, 40.730626987416201 ], [ -74.054745539963889, 40.731644938896459 ], [ -74.055955183885743, 40.732252837950838 ], [ -74.056685141387391, 40.731608440081239 ], [ -74.058084286898264, 40.733320968004591 ], [ -74.059433579725365, 40.732579610285654 ], [ -74.059537241669048, 40.732575633081723 ], [ -74.060300285747644, 40.731509810887296 ], [ -74.061118113508996, 40.730490400276082 ], [ -74.061228972706871, 40.730552131090015 ], [ -74.061270350507328, 40.730494564376372 ], [ -74.059948674411075, 40.729323690252016 ], [ -74.059526803736745, 40.727532282772337 ], [ -74.058292298276754, 40.728377426166162 ] ] ] } }
]
}
