{
"type": "FeatureCollection",
"name": "wardcdistrict28",
"crs": { "type": "name", "properties": { "name": "urn:ogc:def:crs:OGC:1.3:CRS84" } },
"features": [
{ "type": "Feature", "properties": { "fid": 1 }, "geometry": { "type": "Polygon", "coordinates": [ [ [ -74.055271571210454, 40.741624917186947 ], [ -74.05751931213284, 40.739288375288019 ], [ -74.05474005485398, 40.73786431250879 ], [ -74.053946455191976, 40.739153819953543 ], [ -74.052466847361686, 40.738423533154752 ], [ -74.052288918903869, 40.738577205751263 ], [ -74.052028076830638, 40.73843993307247 ], [ -74.050880361174151, 40.737808858650261 ], [ -74.050812052753173, 40.738190735917257 ], [ -74.049381533179456, 40.739625117946417 ], [ -74.050646619868189, 40.740297643498081 ], [ -74.05073733715048, 40.740537204528572 ], [ -74.05086580727037, 40.74061868267102 ], [ -74.051523343831605, 40.739840511845337 ], [ -74.053100154442788, 40.740722413341558 ], [ -74.055306463512395, 40.741655288730172 ], [ -74.055818466016376, 40.740924954959631 ], [ -74.055480602236315, 40.741396531039008 ], [ -74.055271571210454, 40.741624917186947 ] ] ] } }
]
}
