{
"type": "FeatureCollection",
"name": "wardfdistrict1",
"crs": { "type": "name", "properties": { "name": "urn:ogc:def:crs:OGC:1.3:CRS84" } },
"features": [
{ "type": "Feature", "properties": { "fid": 1 }, "geometry": { "type": "Polygon", "coordinates": [ [ [ -74.085976226687563, 40.70496419581999 ], [ -74.084663107408645, 40.706064902815605 ], [ -74.081786955521551, 40.704268552579393 ], [ -74.080828238225848, 40.703669758400387 ], [ -74.08046624321733, 40.703387714328514 ], [ -74.081662019497358, 40.702157255622666 ], [ -74.085976226687563, 40.70496419581999 ] ] ] } }
]
}
