{
"type": "FeatureCollection",
"name": "wardddistrict7",
"crs": { "type": "name", "properties": { "name": "urn:ogc:def:crs:OGC:1.3:CRS84" } },
"features": [
{ "type": "Feature", "properties": { "fid": 1 }, "geometry": { "type": "Polygon", "coordinates": [ [ [ -74.044110552728156, 40.745767254501871 ], [ -74.04596069023394, 40.742848318950209 ], [ -74.045049621298475, 40.742587338495724 ], [ -74.045970359744175, 40.741308983657618 ], [ -74.044661680635571, 40.740866919539975 ], [ -74.044540701014, 40.740976424509306 ], [ -74.044391041096844, 40.740893099119347 ], [ -74.044441609950155, 40.740789167009666 ], [ -74.044537616624439, 40.740589639375472 ], [ -74.045177571977703, 40.739658644871746 ], [ -74.045102030177176, 40.739672555150122 ], [ -74.044947357738565, 40.739902108290195 ], [ -74.044371762885262, 40.740358493022072 ], [ -74.04413271026543, 40.740507481980536 ], [ -74.044015319481403, 40.740415257117604 ], [ -74.043766687011228, 40.740449212172486 ], [ -74.043584253512961, 40.740963300771107 ], [ -74.043164309589699, 40.741819761682578 ], [ -74.042910783108979, 40.742471116737093 ], [ -74.042952068389084, 40.74301348085266 ], [ -74.042382642314948, 40.744243378758306 ], [ -74.041955342950331, 40.74504645274925 ], [ -74.044110552728156, 40.745767254501871 ] ] ] } }
]
}
