{
"type": "FeatureCollection",
"name": "wardedistrict16",
"crs": { "type": "name", "properties": { "name": "urn:ogc:def:crs:OGC:1.3:CRS84" } },
"features": [
{ "type": "Feature", "properties": { "fid": 1 }, "geometry": { "type": "Polygon", "coordinates": [ [ [ -74.048139296152854, 40.721324062759727 ], [ -74.047738641280247, 40.721903761337018 ], [ -74.047702218110018, 40.722083190825828 ], [ -74.047337986407655, 40.724940195208603 ], [ -74.050506802218223, 40.725257632569729 ], [ -74.050597860143824, 40.724415730164317 ], [ -74.04950516503672, 40.723421995588545 ], [ -74.049195568089715, 40.723270173721808 ], [ -74.049359472355789, 40.72230402645576 ], [ -74.049741915643253, 40.721738133687261 ], [ -74.048212142493327, 40.72125505068805 ], [ -74.048139296152854, 40.721324062759727 ] ] ] } }
]
}
