{
"type": "FeatureCollection",
"name": "wardbdistrict16",
"crs": { "type": "name", "properties": { "name": "urn:ogc:def:crs:OGC:1.3:CRS84" } },
"features": [
{ "type": "Feature", "properties": { "fid": 1 }, "geometry": { "type": "Polygon", "coordinates": [ [ [ -74.082922360775896, 40.719120787189397 ], [ -74.086831626829863, 40.720829599411019 ], [ -74.08439515403343, 40.72397149449538 ], [ -74.085031546181781, 40.723819915242849 ], [ -74.085431564103587, 40.723530535711248 ], [ -74.08566793833009, 40.723323835275515 ], [ -74.086086138884696, 40.723296275168913 ], [ -74.086377061009657, 40.723282495111334 ], [ -74.086777078931448, 40.723475415657816 ], [ -74.08712254895481, 40.723709675569651 ], [ -74.087413471079756, 40.723985274410296 ], [ -74.087940767431235, 40.723930154733466 ], [ -74.088758985907646, 40.723709675569651 ], [ -74.089104455931022, 40.723599435713851 ], [ -74.090068135469906, 40.723875035010991 ], [ -74.091013632375976, 40.722607268794981 ], [ -74.087631662673488, 40.721187893184535 ], [ -74.088486246415513, 40.720388619811459 ], [ -74.087758941103147, 40.719864952742519 ], [ -74.087195279486053, 40.720374839151894 ], [ -74.083613300822662, 40.718417956528235 ], [ -74.082922360775896, 40.719120787189397 ] ] ] } }
]
}
