{
"type": "FeatureCollection",
"name": "wardedistrict19",
"crs": { "type": "name", "properties": { "name": "urn:ogc:def:crs:OGC:1.3:CRS84" } },
"features": [
{ "type": "Feature", "properties": { "fid": 1 }, "geometry": { "type": "Polygon", "coordinates": [ [ [ -74.054003426560897, 40.727672867252465 ], [ -74.051854459516989, 40.731178251937827 ], [ -74.042930782809066, 40.730281222256892 ], [ -74.043167533415598, 40.728914953815149 ], [ -74.049778338813496, 40.729563589805302 ], [ -74.049887608324212, 40.728804547059489 ], [ -74.052054786953292, 40.728983957944415 ], [ -74.052455441825884, 40.727603861763662 ], [ -74.054003426560897, 40.727672867252465 ] ] ] } }
]
}
