{
"type": "FeatureCollection",
"name": "wardadistrict17",
"crs": { "type": "name", "properties": { "name": "urn:ogc:def:crs:OGC:1.3:CRS84" } },
"features": [
{ "type": "Feature", "properties": { "fid": 1 }, "geometry": { "type": "Polygon", "coordinates": [ [ [ -74.096293301029561, 40.698420555919618 ], [ -74.090819543884265, 40.692567817048278 ], [ -74.089759100904544, 40.693312739641023 ], [ -74.095170479051035, 40.699602864981671 ], [ -74.095903432287017, 40.699129943874951 ], [ -74.096277706279864, 40.698467848685006 ], [ -74.096293301029561, 40.698420555919618 ] ] ] } }
]
}
