{
"type": "FeatureCollection",
"name": "wardbdistrict1",
"crs": { "type": "name", "properties": { "name": "urn:ogc:def:crs:OGC:1.3:CRS84" } },
"features": [
{ "type": "Feature", "properties": { "fid": 1 }, "geometry": { "type": "Polygon", "coordinates": [ [ [ -74.093496324739462, 40.706275875865181 ], [ -74.096314841341396, 40.708179153245538 ], [ -74.092216653408727, 40.711936431475422 ], [ -74.096432604695067, 40.714654065098351 ], [ -74.097013275149081, 40.714654065098351 ], [ -74.099219822874332, 40.7110155630591 ], [ -74.099529513783125, 40.707758348223507 ], [ -74.097826213784714, 40.706731265461805 ], [ -74.097284254694301, 40.707200790975527 ], [ -74.09635518196788, 40.706437810334705 ], [ -74.095038995605464, 40.705146592413641 ], [ -74.094961572878262, 40.705087900095151 ], [ -74.094187345606244, 40.705645475032611 ], [ -74.093496324739462, 40.706275875865181 ] ] ] } }
]
}
