{
"type": "FeatureCollection",
"name": "wardbdistrict33",
"crs": { "type": "name", "properties": { "name": "urn:ogc:def:crs:OGC:1.3:CRS84" } },
"features": [
{ "type": "Feature", "properties": { "fid": 1 }, "geometry": { "type": "Polygon", "coordinates": [ [ [ -74.066009966198081, 40.721456456084155 ], [ -74.067493340550286, 40.721716695091317 ], [ -74.06723237654387, 40.720571635849218 ], [ -74.066751653374183, 40.720144836001495 ], [ -74.067342256125542, 40.718708270066074 ], [ -74.066737918426483, 40.718541709691138 ], [ -74.064540326793562, 40.721591780494862 ], [ -74.065501773132979, 40.722039390047129 ], [ -74.066009966198081, 40.721456456084155 ] ] ] } }
]
}
