{
"type": "FeatureCollection",
"name": "wardddistrict8",
"crs": { "type": "name", "properties": { "name": "urn:ogc:def:crs:OGC:1.3:CRS84" } },
"features": [
{ "type": "Feature", "properties": { "fid": 1 }, "geometry": { "type": "Polygon", "coordinates": [ [ [ -74.047630972629662, 40.74518410755573 ], [ -74.049429679748158, 40.745809409741547 ], [ -74.049225862140176, 40.746031728803068 ], [ -74.051698009258288, 40.746955826508248 ], [ -74.052596740635437, 40.745669780947601 ], [ -74.050211138852163, 40.744735643553042 ], [ -74.051116424945562, 40.743330077024737 ], [ -74.049329403575555, 40.742576935333489 ], [ -74.047602351589489, 40.74514354856781 ], [ -74.047630972629662, 40.74518410755573 ] ] ] } }
]
}
