{
"type": "FeatureCollection",
"name": "wardedistrict26",
"crs": { "type": "name", "properties": { "name": "urn:ogc:def:crs:OGC:1.3:CRS84" } },
"features": [
{ "type": "Feature", "properties": { "fid": 1 }, "geometry": { "type": "Polygon", "coordinates": [ [ [ -74.035081589623118, 40.726292743881096 ], [ -74.034844839016571, 40.727024212832745 ], [ -74.034462395729108, 40.727521055082647 ], [ -74.03457166523981, 40.728418121972119 ], [ -74.035008743282631, 40.728707940998014 ], [ -74.034662723165397, 40.73032262389296 ], [ -74.032896199408938, 40.730005210691402 ], [ -74.033114738430342, 40.72906676280509 ], [ -74.031876350642307, 40.728749343612954 ], [ -74.032022043323252, 40.72707941771035 ], [ -74.032823353068451, 40.72714842374296 ], [ -74.032823353068451, 40.726761989038714 ], [ -74.034662723165397, 40.726858597925137 ], [ -74.035081589623118, 40.726292743881096 ] ] ] } }
]
}
