{
"type": "FeatureCollection",
"name": "wardddistrict22",
"crs": { "type": "name", "properties": { "name": "urn:ogc:def:crs:OGC:1.3:CRS84" } },
"features": [
{ "type": "Feature", "properties": { "fid": 1 }, "geometry": { "type": "Polygon", "coordinates": [ [ [ -74.049898344315579, 40.749523259369319 ], [ -74.047636517479006, 40.748594843985465 ], [ -74.047117512119556, 40.749340097793123 ], [ -74.045424050418575, 40.748696190667573 ], [ -74.04543893185479, 40.748769951252505 ], [ -74.044551092713775, 40.750244993825788 ], [ -74.045964520393085, 40.750805185370993 ], [ -74.046250960992381, 40.750388804557055 ], [ -74.048647010207645, 40.751311330706791 ], [ -74.049898344315579, 40.749523259369319 ] ] ] } }
]
}
