{
"type": "FeatureCollection",
"name": "wardddistrict17",
"crs": { "type": "name", "properties": { "name": "urn:ogc:def:crs:OGC:1.3:CRS84" } },
"features": [
{ "type": "Feature", "properties": { "fid": 1 }, "geometry": { "type": "Polygon", "coordinates": [ [ [ -74.053335719225046, 40.747578786400794 ], [ -74.0524775096317, 40.748858812656479 ], [ -74.050842372587923, 40.748250728203459 ], [ -74.050402512680392, 40.748818435178038 ], [ -74.048145646322538, 40.747914597122438 ], [ -74.049354604972436, 40.746081016883949 ], [ -74.053335719225046, 40.747578786400794 ] ] ] } }
]
}
