{
"type": "FeatureCollection",
"name": "wardddistrict12",
"crs": { "type": "name", "properties": { "name": "urn:ogc:def:crs:OGC:1.3:CRS84" } },
"features": [
{ "type": "Feature", "properties": { "fid": 1 }, "geometry": { "type": "Polygon", "coordinates": [ [ [ -74.061523572808142, 40.748904578724691 ], [ -74.060623625917799, 40.748952010734655 ], [ -74.060198491706771, 40.749664456079493 ], [ -74.059732932196198, 40.750159644647063 ], [ -74.059012185499199, 40.75080824416878 ], [ -74.05776140028081, 40.752122050598452 ], [ -74.057516534414432, 40.752411033309585 ], [ -74.055697985380988, 40.751687450193977 ], [ -74.058082610226236, 40.748226884362033 ], [ -74.058183866443727, 40.748323547307649 ], [ -74.05882720246376, 40.748540667778009 ], [ -74.059638024077628, 40.74752806290158 ], [ -74.061159359174894, 40.747842231779501 ], [ -74.061676525285634, 40.748024930705725 ], [ -74.061923051857661, 40.748233805819979 ], [ -74.061523572808142, 40.748904578724691 ] ] ] } }
]
}
