{
"type": "FeatureCollection",
"name": "wardedistrict8",
"crs": { "type": "name", "properties": { "name": "urn:ogc:def:crs:OGC:1.3:CRS84" } },
"features": [
{ "type": "Feature", "properties": { "fid": 1 }, "geometry": { "type": "Polygon", "coordinates": [ [ [ -74.041182470637708, 40.719722964270659 ], [ -74.040982143201404, 40.720771964182802 ], [ -74.038468944455104, 40.720509715754567 ], [ -74.038286828603901, 40.721227445839332 ], [ -74.036483881677228, 40.721020409109101 ], [ -74.037121287156367, 40.717597308498732 ], [ -74.038814964572353, 40.718232251747679 ], [ -74.038742118231895, 40.719046626614912 ], [ -74.041146047467493, 40.719791977930782 ], [ -74.041182470637708, 40.719722964270659 ] ] ] } }
]
}
