{
"type": "FeatureCollection",
"name": "wardcdistrict9",
"crs": { "type": "name", "properties": { "name": "urn:ogc:def:crs:OGC:1.3:CRS84" } },
"features": [
{ "type": "Feature", "properties": { "fid": 1 }, "geometry": { "type": "Polygon", "coordinates": [ [ [ -74.063103985263837, 40.725376281493752 ], [ -74.064258239090378, 40.726054904914299 ], [ -74.064039420388696, 40.726681455330947 ], [ -74.06701181773245, 40.728507888914628 ], [ -74.067306036766325, 40.727294374991082 ], [ -74.069991281342084, 40.728387658023024 ], [ -74.070560789629127, 40.72757823692843 ], [ -74.067678608498028, 40.726379250220639 ], [ -74.068000403723488, 40.725662749336458 ], [ -74.068210205932985, 40.725321778371232 ], [ -74.067292012339209, 40.724762666621793 ], [ -74.064310809189237, 40.723763270322472 ], [ -74.063103985263837, 40.725376281493752 ] ] ] } }
]
}
