{
"type": "FeatureCollection",
"name": "wardedistrict2",
"crs": { "type": "name", "properties": { "name": "urn:ogc:def:crs:OGC:1.3:CRS84" } },
"features": [
{ "type": "Feature", "properties": { "fid": 1 }, "geometry": { "type": "Polygon", "coordinates": [ [ [ -74.039288465785418, 40.715623424505509 ], [ -74.038833176157482, 40.718163236470502 ], [ -74.037248768252184, 40.717693930688149 ], [ -74.037667634709905, 40.715361155794113 ], [ -74.039288465785418, 40.715582013725026 ], [ -74.039288465785418, 40.715623424505509 ] ] ] } }
]
}
