{
"type": "FeatureCollection",
"name": "wardedistrict7",
"crs": { "type": "name", "properties": { "name": "urn:ogc:def:crs:OGC:1.3:CRS84" } },
"features": [
{ "type": "Feature", "properties": { "fid": 1 }, "geometry": { "type": "Polygon", "coordinates": [ [ [ -74.038869599327697, 40.718218448697961 ], [ -74.038723906646766, 40.719032823734054 ], [ -74.041200682222836, 40.719778175204482 ], [ -74.041309951733524, 40.718922400584191 ], [ -74.038960657253298, 40.718204645645386 ], [ -74.038869599327697, 40.718218448697961 ] ] ] } }
]
}
