{
"type": "FeatureCollection",
"name": "wardedistrict25",
"crs": { "type": "name", "properties": { "name": "urn:ogc:def:crs:OGC:1.3:CRS84" } },
"features": [
{ "type": "Feature", "properties": { "fid": 1 }, "geometry": { "type": "Polygon", "coordinates": [ [ [ -74.034171010367217, 40.72285611232504 ], [ -74.028543630565693, 40.722290224250358 ], [ -74.028907862268042, 40.727176026135986 ], [ -74.031220733578067, 40.727300236762865 ], [ -74.031730657961376, 40.727010411606187 ], [ -74.032094889663739, 40.726996610376773 ], [ -74.032786929898222, 40.727010411606187 ], [ -74.032877987823809, 40.726623976100527 ], [ -74.034589876824924, 40.726789591592002 ], [ -74.035154435963605, 40.726223736961231 ], [ -74.036137861559979, 40.723035539246574 ], [ -74.034171010367217, 40.72285611232504 ] ] ] } }
]
}
