{
"type": "FeatureCollection",
"name": "wardcdistrict30",
"crs": { "type": "name", "properties": { "name": "urn:ogc:def:crs:OGC:1.3:CRS84" } },
"features": [
{ "type": "Feature", "properties": { "fid": 1 }, "geometry": { "type": "Polygon", "coordinates": [ [ [ -74.055241960064464, 40.737155181644383 ], [ -74.05560430247867, 40.736759894495187 ], [ -74.054246626598186, 40.736063641176059 ], [ -74.05557609422911, 40.734638591405137 ], [ -74.052651626368956, 40.731999122998637 ], [ -74.051625710293123, 40.732737450701045 ], [ -74.051082302014834, 40.733601146824924 ], [ -74.053228989613586, 40.734621330887656 ], [ -74.05233879358336, 40.735642177789067 ], [ -74.055241960064464, 40.737155181644383 ] ] ] } }
]
}
