{
"type": "FeatureCollection",
"name": "wardcdistrict5",
"crs": { "type": "name", "properties": { "name": "urn:ogc:def:crs:OGC:1.3:CRS84" } },
"features": [
{ "type": "Feature", "properties": { "fid": 1 }, "geometry": { "type": "Polygon", "coordinates": [ [ [ -74.081048468855101, 40.739701397732787 ], [ -74.072410275511913, 40.73748935743982 ], [ -74.072306943952441, 40.737585918806268 ], [ -74.071407167601592, 40.737317906988281 ], [ -74.072772836095965, 40.734831231085224 ], [ -74.071276059477015, 40.734427119499244 ], [ -74.069826676307144, 40.73681132565531 ], [ -74.066660017903175, 40.735890947280964 ], [ -74.065656826717685, 40.738062828831971 ], [ -74.071505816490287, 40.740129372110182 ], [ -74.070479003618146, 40.741913848470467 ], [ -74.075599934824723, 40.742802834187152 ], [ -74.081048468855101, 40.739701397732787 ] ] ] } }
]
}
