{
"type": "FeatureCollection",
"name": "wardfdistrict29",
"crs": { "type": "name", "properties": { "name": "urn:ogc:def:crs:OGC:1.3:CRS84" } },
"features": [
{ "type": "Feature", "properties": { "fid": 1 }, "geometry": { "type": "Polygon", "coordinates": [ [ [ -74.041284864232125, 40.71424333588191 ], [ -74.041462127145039, 40.713056684554125 ], [ -74.040801853554726, 40.712166996211131 ], [ -74.0411581331538, 40.711075336350582 ], [ -74.040199333296343, 40.7109259546638 ], [ -74.039729300806584, 40.714001919761344 ], [ -74.041284864232125, 40.71424333588191 ] ] ] } }
]
}
