{
"type": "FeatureCollection",
"name": "wardbdistrict4",
"crs": { "type": "name", "properties": { "name": "urn:ogc:def:crs:OGC:1.3:CRS84" } },
"features": [
{ "type": "Feature", "properties": { "fid": 1 }, "geometry": { "type": "Polygon", "coordinates": [ [ [ -74.08730647041196, 40.705744401400757 ], [ -74.08595097354582, 40.707277301272207 ], [ -74.09250624527543, 40.711623133257234 ], [ -74.093195104338534, 40.710966223362462 ], [ -74.090173012964883, 40.709113365664493 ], [ -74.091595173611339, 40.70786686875077 ], [ -74.08910639248009, 40.706114995812413 ], [ -74.08892862239928, 40.706755108575216 ], [ -74.08726202789174, 40.705778091887041 ], [ -74.08730647041196, 40.705744401400757 ] ] ] } }
]
}
