{
"type": "FeatureCollection",
"name": "wardbdistrict10",
"crs": { "type": "name", "properties": { "name": "urn:ogc:def:crs:OGC:1.3:CRS84" } },
"features": [
{ "type": "Feature", "properties": { "fid": 1 }, "geometry": { "type": "Polygon", "coordinates": [ [ [ -74.077454481047411, 40.717153559256438 ], [ -74.079203146515326, 40.718097529588896 ], [ -74.078800576047882, 40.718497997807269 ], [ -74.081939232391022, 40.720210627963873 ], [ -74.083593787883601, 40.718342582110786 ], [ -74.0808894454578, 40.716950161982318 ], [ -74.079942355072404, 40.717564214200237 ], [ -74.078207924487074, 40.716682052899529 ], [ -74.077454481047411, 40.717153559256438 ] ] ] } }
]
}
