{
"type": "FeatureCollection",
"name": "wardadistrict2",
"crs": { "type": "name", "properties": { "name": "urn:ogc:def:crs:OGC:1.3:CRS84" } },
"features": [
{ "type": "Feature", "properties": { "fid": 1 }, "geometry": { "type": "Polygon", "coordinates": [ [ [ -74.106363085985976, 40.705953908866995 ], [ -74.101225043817351, 40.707770376075686 ], [ -74.101962341348298, 40.709936099147377 ], [ -74.100902476147581, 40.710704564596917 ], [ -74.10297612545331, 40.712206539641272 ], [ -74.104128152845377, 40.712031893121029 ], [ -74.104980653115476, 40.712206539641272 ], [ -74.105948356124841, 40.712363721117825 ], [ -74.106685653655774, 40.712311327333538 ], [ -74.107307748447468, 40.712031893121029 ], [ -74.107399910638847, 40.711944569689138 ], [ -74.107238626803962, 40.711403161855209 ], [ -74.107722478308617, 40.710425123641372 ], [ -74.107653356665097, 40.709953564369712 ], [ -74.106478288725199, 40.709412140347055 ], [ -74.1063170048903, 40.706058706398842 ], [ -74.106363085985976, 40.705953908866995 ] ] ] } }
]
}
