{
"type": "FeatureCollection",
"name": "wardfdistrict34",
"crs": { "type": "name", "properties": { "name": "urn:ogc:def:crs:OGC:1.3:CRS84" } },
"features": [
{ "type": "Feature", "properties": { "fid": 1 }, "geometry": { "type": "Polygon", "coordinates": [ [ [ -74.035804283426884, 40.715041890001032 ], [ -74.031539410925461, 40.714396101686958 ], [ -74.032606248264202, 40.711187524562476 ], [ -74.034875918256688, 40.711650681494085 ], [ -74.034539281715141, 40.714100887622401 ], [ -74.036001354520948, 40.7143151511086 ], [ -74.035804283426884, 40.715041890001032 ] ] ] } }
]
}
