{
"type": "FeatureCollection",
"name": "wardfdistrict12",
"crs": { "type": "name", "properties": { "name": "urn:ogc:def:crs:OGC:1.3:CRS84" } },
"features": [
{ "type": "Feature", "properties": { "fid": 1 }, "geometry": { "type": "Polygon", "coordinates": [ [ [ -74.081682451221155, 40.712757488753994 ], [ -74.08106066942112, 40.713494754603367 ], [ -74.080803967379225, 40.713965167868885 ], [ -74.080409010225807, 40.714440840535559 ], [ -74.08019413240919, 40.714641355692429 ], [ -74.079620137929197, 40.715134344213965 ], [ -74.076561925887219, 40.71356740925539 ], [ -74.077535881167023, 40.712432863820879 ], [ -74.07835661167698, 40.711576485557103 ], [ -74.078977372107317, 40.710984709309564 ], [ -74.081682451221155, 40.712757488753994 ] ] ] } }
]
}
