{
"type": "FeatureCollection",
"name": "wardcdistrict14",
"crs": { "type": "name", "properties": { "name": "urn:ogc:def:crs:OGC:1.3:CRS84" } },
"features": [
{ "type": "Feature", "properties": { "fid": 1 }, "geometry": { "type": "Polygon", "coordinates": [ [ [ -74.061132562760136, 40.725735433089774 ], [ -74.060531576448042, 40.726073524812904 ], [ -74.060111260273416, 40.72660179730692 ], [ -74.05955807107577, 40.727462116711052 ], [ -74.059866472551278, 40.729186358565173 ], [ -74.061124625343268, 40.730470141172404 ], [ -74.064419820051796, 40.730804373996833 ], [ -74.064954264509396, 40.730361581232515 ], [ -74.062751264373674, 40.728716844230831 ], [ -74.063586729392725, 40.727784837015292 ], [ -74.061132562760136, 40.725735433089774 ] ] ] } }
]
}
