{
"type": "FeatureCollection",
"name": "wardfdistrict16",
"crs": { "type": "name", "properties": { "name": "urn:ogc:def:crs:OGC:1.3:CRS84" } },
"features": [
{ "type": "Feature", "properties": { "fid": 1 }, "geometry": { "type": "Polygon", "coordinates": [ [ [ -74.075331670721852, 40.718396668865125 ], [ -74.074647276426617, 40.718864740790721 ], [ -74.072739209274175, 40.720817743060827 ], [ -74.069250302791005, 40.719348142770023 ], [ -74.069722842097917, 40.718868744091608 ], [ -74.069986487323419, 40.718503152382638 ], [ -74.070438155798598, 40.717934035751313 ], [ -74.07066302026756, 40.717514156342169 ], [ -74.070797375664185, 40.717079941146814 ], [ -74.070936672785848, 40.716816853686957 ], [ -74.071001369301428, 40.71657034264539 ], [ -74.075331670721852, 40.718396668865125 ] ] ] } }
]
}
