{
"type": "FeatureCollection",
"name": "wardfdistrict24",
"crs": { "type": "name", "properties": { "name": "urn:ogc:def:crs:OGC:1.3:CRS84" } },
"features": [
{ "type": "Feature", "properties": { "fid": 1 }, "geometry": { "type": "Polygon", "coordinates": [ [ [ -74.054187944179006, 40.722689027558431 ], [ -74.054876568436285, 40.720852795254331 ], [ -74.050675453642484, 40.719656766393278 ], [ -74.049915313528714, 40.720960823026459 ], [ -74.047114597853451, 40.720013711488562 ], [ -74.046786256112384, 40.720625791838565 ], [ -74.049787880675254, 40.721612114608 ], [ -74.050776496006648, 40.721889624723708 ], [ -74.051357371748935, 40.721838426363696 ], [ -74.054203873285672, 40.722607617776418 ], [ -74.054187944179006, 40.722689027558431 ] ] ] } }
]
}
