{
"type": "FeatureCollection",
"name": "wardcdistrict20",
"crs": { "type": "name", "properties": { "name": "urn:ogc:def:crs:OGC:1.3:CRS84" } },
"features": [
{ "type": "Feature", "properties": { "fid": 1 }, "geometry": { "type": "Polygon", "coordinates": [ [ [ -74.061114343354234, 40.730854517864671 ], [ -74.060225360149346, 40.731641244319079 ], [ -74.059655851862274, 40.732450615992732 ], [ -74.059644199033471, 40.732663055979224 ], [ -74.062767291698577, 40.733044743789897 ], [ -74.062631281269319, 40.733691465209276 ], [ -74.062735681304403, 40.733908815609425 ], [ -74.063059927825861, 40.734465513083109 ], [ -74.063007332081654, 40.735015373781273 ], [ -74.063128762961782, 40.735437240247307 ], [ -74.062997313450111, 40.736076527177914 ], [ -74.062626270572707, 40.737569504505998 ], [ -74.062392055223256, 40.738840120936729 ], [ -74.063381799987312, 40.738973278008785 ], [ -74.063523373473473, 40.737543615914966 ], [ -74.0644922382305, 40.737633308020953 ], [ -74.064860750114278, 40.736337937923331 ], [ -74.066409879190871, 40.736452202596922 ], [ -74.066800694592956, 40.735507558588615 ], [ -74.064844089350515, 40.733733457561605 ], [ -74.064211308984426, 40.732788015567941 ], [ -74.063782056015242, 40.732131036746722 ], [ -74.061114343354234, 40.730854517864671 ] ] ] } }
]
}
