{
"type": "FeatureCollection",
"name": "wardcdistrict31",
"crs": { "type": "name", "properties": { "name": "urn:ogc:def:crs:OGC:1.3:CRS84" } },
"features": [
{ "type": "Feature", "properties": { "fid": 1 }, "geometry": { "type": "Polygon", "coordinates": [ [ [ -74.052665968205901, 40.731995167437653 ], [ -74.051901685656603, 40.731553660864755 ], [ -74.049179345946584, 40.733984446200822 ], [ -74.048701767767142, 40.734799203093829 ], [ -74.049791404320175, 40.735292487573524 ], [ -74.049250579707021, 40.73609390419697 ], [ -74.051073837882981, 40.736981728396337 ], [ -74.053200305939669, 40.734629241697156 ], [ -74.051062740176121, 40.733594234737687 ], [ -74.051611368456165, 40.732741406217919 ], [ -74.052665968205901, 40.731995167437653 ] ] ] } }
]
}
