{
"type": "FeatureCollection",
"name": "wardedistrict17",
"crs": { "type": "name", "properties": { "name": "urn:ogc:def:crs:OGC:1.3:CRS84" } },
"features": [
{ "type": "Feature", "properties": { "fid": 1 }, "geometry": { "type": "Polygon", "coordinates": [ [ [ -74.050597860143796, 40.724484738958914 ], [ -74.054039849731154, 40.727700469427973 ], [ -74.046864485194575, 40.726982809144502 ], [ -74.047301563237426, 40.724981600167652 ], [ -74.050506802218223, 40.72532664049136 ], [ -74.050616071728925, 40.724484738958914 ], [ -74.050597860143796, 40.724484738958914 ] ] ] } }
]
}
