{
"type": "FeatureCollection",
"name": "wardedistrict14",
"crs": { "type": "name", "properties": { "name": "urn:ogc:def:crs:OGC:1.3:CRS84" } },
"features": [
{ "type": "Feature", "properties": { "fid": 1 }, "geometry": { "type": "Polygon", "coordinates": [ [ [ -74.045097961438117, 40.720206058388996 ], [ -74.044660883395281, 40.720937594236716 ], [ -74.044478767544106, 40.720813371734927 ], [ -74.04420559376733, 40.722483454865568 ], [ -74.045826424842843, 40.722649080660709 ], [ -74.045753578502357, 40.723380589659236 ], [ -74.047374409577898, 40.72354621322193 ], [ -74.047647583354674, 40.722055586320579 ], [ -74.04808466139751, 40.721199840979189 ], [ -74.045134384608346, 40.720233663661297 ], [ -74.045097961438117, 40.720206058388996 ] ] ] } }
]
}
