{
"type": "FeatureCollection",
"name": "wardcdistrict8",
"crs": { "type": "name", "properties": { "name": "urn:ogc:def:crs:OGC:1.3:CRS84" } },
"features": [
{ "type": "Feature", "properties": { "fid": 1 }, "geometry": { "type": "Polygon", "coordinates": [ [ [ -74.059837791639026, 40.722498358977852 ], [ -74.059783113299375, 40.722722699075177 ], [ -74.060458102077675, 40.723231977250514 ], [ -74.061038471740233, 40.723527324483619 ], [ -74.059894077149877, 40.724729238705983 ], [ -74.06022338565856, 40.724890735149152 ], [ -74.061027556312396, 40.725635155990005 ], [ -74.061380433836248, 40.726048630706387 ], [ -74.061978493428029, 40.7265667941505 ], [ -74.063672121330285, 40.727742821474251 ], [ -74.064222358162283, 40.725997104528723 ], [ -74.063078544339248, 40.725340218325812 ], [ -74.064305589187512, 40.723752401162322 ], [ -74.060002037344049, 40.72236688752843 ], [ -74.059837791639026, 40.722498358977852 ] ] ] } }
]
}
