{
"type": "FeatureCollection",
"name": "wardedistrict6",
"crs": { "type": "name", "properties": { "name": "urn:ogc:def:crs:OGC:1.3:CRS84" } },
"features": [
{ "type": "Feature", "properties": { "fid": 1 }, "geometry": { "type": "Polygon", "coordinates": [ [ [ -74.038942445668184, 40.718163236470502 ], [ -74.042948994394195, 40.719446908914627 ], [ -74.044952268757186, 40.716175565783956 ], [ -74.039379523711006, 40.715471584851151 ], [ -74.039233831030074, 40.716258386580762 ], [ -74.042420858425743, 40.716686292389582 ], [ -74.042293377329926, 40.717500686169046 ], [ -74.039015292008656, 40.717058982304728 ], [ -74.038942445668184, 40.718163236470502 ] ] ] } }
]
}
