{
"type": "FeatureCollection",
"name": "wardbdistrict8",
"crs": { "type": "name", "properties": { "name": "urn:ogc:def:crs:OGC:1.3:CRS84" } },
"features": [
{ "type": "Feature", "properties": { "fid": 1 }, "geometry": { "type": "Polygon", "coordinates": [ [ [ -74.08248661189036, 40.712004394545367 ], [ -74.080750526749526, 40.714149928238449 ], [ -74.08248661189036, 40.7150557994837 ], [ -74.081517926703086, 40.71597119369504 ], [ -74.084461723246207, 40.717506357815857 ], [ -74.086864565723715, 40.715503962805613 ], [ -74.083266592171, 40.713673148948196 ], [ -74.083606261002899, 40.712605150948512 ], [ -74.08248661189036, 40.712004394545367 ] ] ] } }
]
}
