{
"type": "FeatureCollection",
"name": "wardddistrict31",
"crs": { "type": "name", "properties": { "name": "urn:ogc:def:crs:OGC:1.3:CRS84" } },
"features": [
{ "type": "Feature", "properties": { "fid": 1 }, "geometry": { "type": "Polygon", "coordinates": [ [ [ -74.05877982383295, 40.744120518573013 ], [ -74.061809282839832, 40.740014489679204 ], [ -74.075632317805159, 40.743086480224761 ], [ -74.075411253426083, 40.743282416217411 ], [ -74.074803137215667, 40.744041919804879 ], [ -74.074352377470873, 40.744872230411609 ], [ -74.074022715858533, 40.745897548980153 ], [ -74.07376454759121, 40.746871991447641 ], [ -74.073825718839515, 40.748568156783335 ], [ -74.07398000534107, 40.749231579092069 ], [ -74.076495839914628, 40.75121634699407 ], [ -74.076831595848489, 40.751715512288577 ], [ -74.077082600866305, 40.752123846996135 ], [ -74.076661248461335, 40.752188116573365 ], [ -74.07575252244574, 40.752293333807529 ], [ -74.075402752268957, 40.752535110794469 ], [ -74.075113531158408, 40.752874385764457 ], [ -74.075344783144402, 40.753412733260966 ], [ -74.07590066901912, 40.754141857962857 ], [ -74.076315614846493, 40.754577643927547 ], [ -74.076291590762949, 40.755041027662003 ], [ -74.075353190758079, 40.755227087740458 ], [ -74.075050623193377, 40.755196319174665 ], [ -74.074630560759232, 40.75574812778131 ], [ -74.074780576209022, 40.756744836270556 ], [ -74.075069129530831, 40.757516486549633 ], [ -74.074479743030864, 40.758343326393593 ], [ -74.073119990621038, 40.758593640615111 ], [ -74.072633729214957, 40.758665418729095 ], [ -74.072220340007888, 40.75940220250768 ], [ -74.072321773991675, 40.759955526436464 ], [ -74.071325138212785, 40.760334088756771 ], [ -74.068060379541137, 40.761981487325919 ], [ -74.061275859768145, 40.748945197143314 ], [ -74.061490940347142, 40.748922228181421 ], [ -74.062627158957639, 40.749590011765285 ], [ -74.063405244219254, 40.748799277716579 ], [ -74.064067147385614, 40.747723919501773 ], [ -74.064497976332305, 40.746566910834765 ], [ -74.064543043418468, 40.746461043942311 ], [ -74.05877982383295, 40.744120518573013 ] ] ] } }
]
}
