{
"type": "FeatureCollection",
"name": "wardedistrict21",
"crs": { "type": "name", "properties": { "name": "urn:ogc:def:crs:OGC:1.3:CRS84" } },
"features": [
{ "type": "Feature", "properties": { "fid": 1 }, "geometry": { "type": "Polygon", "coordinates": [ [ [ -74.046955543120191, 40.727162224940912 ], [ -74.046737004098759, 40.729259973745954 ], [ -74.049760127228382, 40.729577390502349 ], [ -74.049869396739098, 40.728818347913965 ], [ -74.051981940612805, 40.728997758761679 ], [ -74.052455441825884, 40.727590060657313 ], [ -74.047010177875535, 40.727120821338502 ], [ -74.046955543120191, 40.727162224940912 ] ] ] } }
]
}
