{
"type": "FeatureCollection",
"name": "wardfdistrict4",
"crs": { "type": "name", "properties": { "name": "urn:ogc:def:crs:OGC:1.3:CRS84" } },
"features": [
{ "type": "Feature", "properties": { "fid": 1 }, "geometry": { "type": "Polygon", "coordinates": [ [ [ -74.079751971526804, 40.704064752560299 ], [ -74.079135152092277, 40.704860928084408 ], [ -74.078572083072558, 40.705438438755714 ], [ -74.077122060299004, 40.704601335162096 ], [ -74.076268512127271, 40.705429147488225 ], [ -74.075582260856578, 40.705177236945801 ], [ -74.075152587785084, 40.705128935071997 ], [ -74.074241162438753, 40.706982165275043 ], [ -74.073314220794629, 40.706669915960447 ], [ -74.073075531879766, 40.706543220188934 ], [ -74.075156879668455, 40.703423347082044 ], [ -74.075650186604889, 40.703595317222508 ], [ -74.076668906376412, 40.702428182946811 ], [ -74.077168300250278, 40.701951681448939 ], [ -74.079881281996137, 40.704021033022975 ], [ -74.079751971526804, 40.704064752560299 ] ] ] } }
]
}
