{
"type": "FeatureCollection",
"name": "wardfdistrict30",
"crs": { "type": "name", "properties": { "name": "urn:ogc:def:crs:OGC:1.3:CRS84" } },
"features": [
{ "type": "Feature", "properties": { "fid": 1 }, "geometry": { "type": "Polygon", "coordinates": [ [ [ -74.041298791880237, 40.714228257389998 ], [ -74.039633808728269, 40.714041112872678 ], [ -74.039450541439635, 40.71542676075611 ], [ -74.042509960615376, 40.715837199499951 ], [ -74.042862319859111, 40.714428960925183 ], [ -74.042402831313723, 40.714252498900628 ], [ -74.041985125712714, 40.714030806388543 ], [ -74.041800187212687, 40.713685496365002 ], [ -74.041623171985094, 40.713524140454922 ], [ -74.041388444706442, 40.713489435660584 ], [ -74.041298791880237, 40.714228257389998 ] ] ] } }
]
}
