{
"type": "FeatureCollection",
"name": "wardadistrict4",
"crs": { "type": "name", "properties": { "name": "urn:ogc:def:crs:OGC:1.3:CRS84" } },
"features": [
{ "type": "Feature", "properties": { "fid": 1 }, "geometry": { "type": "Polygon", "coordinates": [ [ [ -74.095774775601981, 40.698999889982005 ], [ -74.092484283414919, 40.701825549209786 ], [ -74.09633618659123, 40.706377091297277 ], [ -74.097006760828407, 40.70603425869966 ], [ -74.094043758385084, 40.702452143595814 ], [ -74.097365440071528, 40.700796975834322 ], [ -74.095774775601981, 40.698999889982005 ] ] ] } }
]
}
