{
"type": "FeatureCollection",
"name": "wardadistrict31",
"crs": { "type": "name", "properties": { "name": "urn:ogc:def:crs:OGC:1.3:CRS84" } },
"features": [
{ "type": "Feature", "properties": { "fid": 1 }, "geometry": { "type": "Polygon", "coordinates": [ [ [ -74.069352139696321, 40.69162663571327 ], [ -74.078912935848294, 40.699457186696854 ], [ -74.071299709282826, 40.704512996305517 ], [ -74.071856836178412, 40.704935072603597 ], [ -74.062717547320446, 40.711459577501337 ], [ -74.06198740692038, 40.710866521465725 ], [ -74.059589691418552, 40.71261447077962 ], [ -74.058895271081965, 40.712098035985463 ], [ -74.0600613731566, 40.711273718303246 ], [ -74.059432464172517, 40.71077713646077 ], [ -74.060677179870211, 40.709893211618351 ], [ -74.056799394742598, 40.706254123034242 ], [ -74.048220667840582, 40.6996356421906 ], [ -74.054768008371909, 40.690675389222328 ], [ -74.057715676068781, 40.691955643062343 ], [ -74.057458112871956, 40.692780200308711 ], [ -74.058402511260269, 40.693344365176934 ], [ -74.058660074457094, 40.692519814912224 ], [ -74.058946255786893, 40.692693405289617 ], [ -74.058660074457094, 40.693452857873169 ], [ -74.059375527781583, 40.693886826891493 ], [ -74.0597475635103, 40.693062283339934 ], [ -74.059919272308179, 40.693192475105405 ], [ -74.059547236579448, 40.693930223637857 ], [ -74.060377162435856, 40.69440758598234 ], [ -74.060720580031614, 40.693517953406115 ], [ -74.061235706425236, 40.693930223637857 ], [ -74.060835052563519, 40.69501513311058 ], [ -74.065986316499803, 40.69800939158764 ], [ -74.065904619771928, 40.698012747478963 ], [ -74.066916961890911, 40.696497381662752 ], [ -74.06824079389267, 40.69683194591186 ], [ -74.070395265581837, 40.694726131174541 ], [ -74.070213563150219, 40.693899531497841 ], [ -74.069434838443314, 40.695001662121136 ], [ -74.067643771617384, 40.695493678834481 ], [ -74.066813131930004, 40.69541495640452 ], [ -74.066345897105833, 40.694942619871362 ], [ -74.066034407223086, 40.694962300627097 ], [ -74.065463342438022, 40.694588365273923 ], [ -74.069227178521444, 40.69153776162748 ], [ -74.069352139696321, 40.69162663571327 ] ] ] } }
]
}
