{
"type": "FeatureCollection",
"name": "wardfdistrict21",
"crs": { "type": "name", "properties": { "name": "urn:ogc:def:crs:OGC:1.3:CRS84" } },
"features": [
{ "type": "Feature", "properties": { "fid": 1 }, "geometry": { "type": "Polygon", "coordinates": [ [ [ -74.06264049919676, 40.721850170804025 ], [ -74.061651636180017, 40.722920480637548 ], [ -74.055445476708087, 40.720974975682701 ], [ -74.055612649766459, 40.720569432200492 ], [ -74.056201737747415, 40.719129657036973 ], [ -74.056464609288554, 40.717561658953308 ], [ -74.056460688933214, 40.717245033456891 ], [ -74.056176420561314, 40.716172990202971 ], [ -74.056134678897848, 40.715993561358736 ], [ -74.056695705178115, 40.71570714358689 ], [ -74.057228504634097, 40.717472783171822 ], [ -74.058990940042037, 40.71777903910494 ], [ -74.058949074535889, 40.718273568282065 ], [ -74.060317615441051, 40.718685318697581 ], [ -74.059209242843295, 40.720590919172643 ], [ -74.06264049919676, 40.721850170804025 ] ] ] } }
]
}
