{
"type": "FeatureCollection",
"name": "wardfdistrict10",
"crs": { "type": "name", "properties": { "name": "urn:ogc:def:crs:OGC:1.3:CRS84" } },
"features": [
{ "type": "Feature", "properties": { "fid": 1 }, "geometry": { "type": "Polygon", "coordinates": [ [ [ -74.075464613244989, 40.709412350986121 ], [ -74.074910406305662, 40.710477629051923 ], [ -74.074557211456195, 40.711020431872306 ], [ -74.073918582381978, 40.711422968007149 ], [ -74.073534591969761, 40.711758428572765 ], [ -74.072934702371185, 40.712439917336013 ], [ -74.071941836437318, 40.713643066665384 ], [ -74.069049734803087, 40.712040679446638 ], [ -74.069678521708099, 40.711071184829272 ], [ -74.070072457491747, 40.71074099946425 ], [ -74.07064741142014, 40.710439481606251 ], [ -74.071216402253754, 40.710112327397034 ], [ -74.071658125357459, 40.709537860278871 ], [ -74.072052102422035, 40.708982986246241 ], [ -74.07243215183847, 40.708443185535415 ], [ -74.075464613244989, 40.709412350986121 ] ] ] } }
]
}
