{
"type": "FeatureCollection",
"name": "wardcdistrict6",
"crs": { "type": "name", "properties": { "name": "urn:ogc:def:crs:OGC:1.3:CRS84" } },
"features": [
{ "type": "Feature", "properties": { "fid": 1 }, "geometry": { "type": "Polygon", "coordinates": [ [ [ -74.066368171848353, 40.736500625024277 ], [ -74.064778600926061, 40.736335980227025 ], [ -74.064526141906214, 40.737636264462992 ], [ -74.063518153471776, 40.737532749005609 ], [ -74.06335965448352, 40.739028610124464 ], [ -74.062514646257284, 40.738892456868385 ], [ -74.062454747915865, 40.739105875047422 ], [ -74.061663573904482, 40.739927061091265 ], [ -74.07047378361635, 40.741902982274965 ], [ -74.071445865477301, 40.740207434959991 ], [ -74.065663364887683, 40.738110251310282 ], [ -74.066368171848353, 40.736500625024277 ] ] ] } }
]
}
