{
"type": "FeatureCollection",
"name": "wardddistrict26",
"crs": { "type": "name", "properties": { "name": "urn:ogc:def:crs:OGC:1.3:CRS84" } },
"features": [
{ "type": "Feature", "properties": { "fid": 1 }, "geometry": { "type": "Polygon", "coordinates": [ [ [ -74.04058592649524, 40.751561501307407 ], [ -74.042259034620599, 40.752205801956535 ], [ -74.042604066526536, 40.752510349060245 ], [ -74.042685614153783, 40.752851208220903 ], [ -74.042929100389458, 40.753728759184042 ], [ -74.043174210490321, 40.75453837469167 ], [ -74.043216674831484, 40.754812142367506 ], [ -74.045965632597614, 40.750836023302824 ], [ -74.041985630549533, 40.749369165760875 ], [ -74.04058592649524, 40.751561501307407 ] ] ] } }
]
}
