{
"type": "FeatureCollection",
"name": "wardfdistrict25",
"crs": { "type": "name", "properties": { "name": "urn:ogc:def:crs:OGC:1.3:CRS84" } },
"features": [
{ "type": "Feature", "properties": { "fid": 1 }, "geometry": { "type": "Polygon", "coordinates": [ [ [ -74.047933842916052, 40.716415623918884 ], [ -74.047019786909885, 40.716346170393358 ], [ -74.047051583201906, 40.716520320082928 ], [ -74.046176018986031, 40.71807772395686 ], [ -74.044206752876576, 40.717481962746241 ], [ -74.044949983794837, 40.716180097825493 ], [ -74.045010801235961, 40.715392291748678 ], [ -74.047866433178896, 40.715189042045267 ], [ -74.048045243460592, 40.716407342993335 ], [ -74.047933842916052, 40.716415623918884 ] ] ] } }
]
}
