{
"type": "FeatureCollection",
"name": "wardbdistrict12",
"crs": { "type": "name", "properties": { "name": "urn:ogc:def:crs:OGC:1.3:CRS84" } },
"features": [
{ "type": "Feature", "properties": { "fid": 1 }, "geometry": { "type": "Polygon", "coordinates": [ [ [ -74.090200599126362, 40.713404115849848 ], [ -74.099009680783382, 40.717901508078889 ], [ -74.097320893108204, 40.720340351423701 ], [ -74.097320893108204, 40.720703575766329 ], [ -74.097594750569044, 40.72059979758496 ], [ -74.097754500754533, 40.720738168457487 ], [ -74.096818821096662, 40.722882880199343 ], [ -74.096864464006813, 40.723747663770268 ], [ -74.096362391995257, 40.723937914647991 ], [ -74.096499320725684, 40.724180051342195 ], [ -74.096818821096662, 40.724231937662061 ], [ -74.096362391995257, 40.724370300983928 ], [ -74.096741183746147, 40.725105619682061 ], [ -74.096741183746147, 40.725472627089886 ], [ -74.096386047465899, 40.725497094178458 ], [ -74.096547473047835, 40.725741764569356 ], [ -74.096353762349523, 40.72588856637212 ], [ -74.096482902815069, 40.726010900960418 ], [ -74.096838039095289, 40.726133235323829 ], [ -74.096902609328069, 40.726500237064826 ], [ -74.090671581865891, 40.723221616461828 ], [ -74.093431922539637, 40.719368843298113 ], [ -74.086649800501817, 40.7157719392507 ], [ -74.090200599126362, 40.713404115849848 ] ] ] } }
]
}
