{
"type": "FeatureCollection",
"name": "wardfdistrict3",
"crs": { "type": "name", "properties": { "name": "urn:ogc:def:crs:OGC:1.3:CRS84" } },
"features": [
{ "type": "Feature", "properties": { "fid": 1 }, "geometry": { "type": "Polygon", "coordinates": [ [ [ -74.08460886162311, 40.708979788126129 ], [ -74.079015725073063, 40.705246968120989 ], [ -74.079958843509218, 40.704129620114081 ], [ -74.083733999182414, 40.706717763467601 ], [ -74.083129188499214, 40.707115805268572 ], [ -74.085116220050338, 40.7084626199483 ], [ -74.08460886162311, 40.708979788126129 ] ] ] } }
]
}
