{
"type": "FeatureCollection",
"name": "wardedistrict24",
"crs": { "type": "name", "properties": { "name": "urn:ogc:def:crs:OGC:1.3:CRS84" } },
"features": [
{ "type": "Feature", "properties": { "fid": 1 }, "geometry": { "type": "Polygon", "coordinates": [ [ [ -74.036174284730208, 40.723049341297425 ], [ -74.034061740856501, 40.722842310234128 ], [ -74.034262068292804, 40.722083190825828 ], [ -74.031366426259012, 40.721903761337018 ], [ -74.031402849429227, 40.721324062759727 ], [ -74.033533604888078, 40.721462086688447 ], [ -74.033788567079725, 40.720371689851035 ], [ -74.036429246921884, 40.721130828778705 ], [ -74.036174284730208, 40.723049341297425 ] ] ] } }
]
}
