{
"type": "FeatureCollection",
"name": "wardbdistrict21",
"crs": { "type": "name", "properties": { "name": "urn:ogc:def:crs:OGC:1.3:CRS84" } },
"features": [
{ "type": "Feature", "properties": { "fid": 1 }, "geometry": { "type": "Polygon", "coordinates": [ [ [ -74.078957425395302, 40.723682342033626 ], [ -74.078067792279043, 40.724574048455466 ], [ -74.07918700813498, 40.725052520146853 ], [ -74.076432015258817, 40.728390851899512 ], [ -74.078153885806401, 40.729162885237237 ], [ -74.080234479384757, 40.726509662744412 ], [ -74.081812860720063, 40.72716210431286 ], [ -74.080822785155192, 40.728466968260392 ], [ -74.082386817569272, 40.729347736960875 ], [ -74.081406842576101, 40.730715134025417 ], [ -74.092724439485607, 40.735169665638665 ], [ -74.093713355720411, 40.734420326045417 ], [ -74.093988054674512, 40.733754239321669 ], [ -74.09437263321027, 40.732755096732639 ], [ -74.094317693419455, 40.732422045868717 ], [ -74.094812151536871, 40.732297151364968 ], [ -74.094976970909315, 40.731922466447038 ], [ -74.094482512791927, 40.731755939139575 ], [ -74.094867091327686, 40.731547779419159 ], [ -74.095251669863444, 40.731214722512 ], [ -74.095416489235916, 40.731048193433246 ], [ -74.095361549445087, 40.730715134025417 ], [ -74.095636248399202, 40.730423705676017 ], [ -74.095965887144146, 40.730215541787871 ], [ -74.096405405470733, 40.730257174617599 ], [ -74.096515285052376, 40.729965744262479 ], [ -74.095965887144146, 40.729882478212311 ], [ -74.096020826934961, 40.729591046216143 ], [ -74.096020826934961, 40.728758376336984 ], [ -74.096185646307433, 40.7280922329318 ], [ -74.096460345261548, 40.727259544298022 ], [ -74.096789984006477, 40.726926465927122 ], [ -74.092999138439708, 40.724761415881872 ], [ -74.08997744994447, 40.723928685571693 ], [ -74.089263232663768, 40.723678864446931 ], [ -74.087724918520721, 40.724011959071568 ], [ -74.087271665246433, 40.723980731521323 ], [ -74.086928291553789, 40.723616409019236 ], [ -74.086475038279488, 40.723356177439619 ], [ -74.086117929639158, 40.723314540292463 ], [ -74.085486122044685, 40.723533135024454 ], [ -74.084964194031883, 40.723845411967623 ], [ -74.08431865148971, 40.723980731521323 ], [ -74.083700578842965, 40.723907867180444 ], [ -74.082656722817319, 40.724001549889778 ], [ -74.08203865017056, 40.724136869126013 ], [ -74.081502987210044, 40.724334642899471 ], [ -74.081132143621986, 40.724355461157209 ], [ -74.08084370972017, 40.724272188087134 ], [ -74.080417926341269, 40.724417915891415 ], [ -74.078934551989093, 40.723751729038518 ], [ -74.078957425395302, 40.723682342033626 ] ] ] } }
]
}
