{
"type": "FeatureCollection",
"name": "wardadistrict13",
"crs": { "type": "name", "properties": { "name": "urn:ogc:def:crs:OGC:1.3:CRS84" } },
"features": [
{ "type": "Feature", "properties": { "fid": 1 }, "geometry": { "type": "Polygon", "coordinates": [ [ [ -74.095716295290629, 40.693099905464351 ], [ -74.093720167328811, 40.690758684650049 ], [ -74.093283514337173, 40.690912403691421 ], [ -74.092035934361022, 40.689457970874244 ], [ -74.093766951577905, 40.688038981434893 ], [ -74.096839117269141, 40.691657344791501 ], [ -74.095856648037937, 40.693265443216063 ], [ -74.095716295290629, 40.693099905464351 ] ] ] } }
]
}
