{
"type": "FeatureCollection",
"name": "wardadistrict26",
"crs": { "type": "name", "properties": { "name": "urn:ogc:def:crs:OGC:1.3:CRS84" } },
"features": [
{ "type": "Feature", "properties": { "fid": 1 }, "geometry": { "type": "Polygon", "coordinates": [ [ [ -74.088449141929573, 40.704769309363954 ], [ -74.087248346202571, 40.705774177620746 ], [ -74.081852562805764, 40.702333918691103 ], [ -74.082990979534003, 40.701092544522517 ], [ -74.088558305177514, 40.704710198994327 ], [ -74.088449141929573, 40.704769309363954 ] ] ] } }
]
}
