{
"type": "FeatureCollection",
"name": "wardcdistrict25",
"crs": { "type": "name", "properties": { "name": "urn:ogc:def:crs:OGC:1.3:CRS84" } },
"features": [
{ "type": "Feature", "properties": { "fid": 1 }, "geometry": { "type": "Polygon", "coordinates": [ [ [ -74.055492172062827, 40.734687889126974 ], [ -74.0542278754466, 40.736045737341307 ], [ -74.055590771328866, 40.736752857886401 ], [ -74.054771678070736, 40.737870974457287 ], [ -74.057564618102361, 40.739272804465877 ], [ -74.058601527922875, 40.738303850283337 ], [ -74.056867563517912, 40.737348345150153 ], [ -74.057459981735931, 40.736772694662896 ], [ -74.058729629342253, 40.737437837971306 ], [ -74.058767988592507, 40.737162668503359 ], [ -74.055608172255262, 40.7345574405878 ], [ -74.055492172062827, 40.734687889126974 ] ] ] } }
]
}
