{
"type": "FeatureCollection",
"name": "wardcdistrict19",
"crs": { "type": "name", "properties": { "name": "urn:ogc:def:crs:OGC:1.3:CRS84" } },
"features": [
{ "type": "Feature", "properties": { "fid": 1 }, "geometry": { "type": "Polygon", "coordinates": [ [ [ -74.061391952915031, 40.730519487016693 ], [ -74.0610165341607, 40.730819955994633 ], [ -74.063735735083625, 40.732051506030956 ], [ -74.065096574015712, 40.734174569987189 ], [ -74.066960432051886, 40.735518885325874 ], [ -74.067188372588788, 40.734877595386358 ], [ -74.067278167429421, 40.734422084381364 ], [ -74.067283229416674, 40.734026860816165 ], [ -74.068734919381072, 40.731706533441745 ], [ -74.064289425350921, 40.730803415024049 ], [ -74.06131502372854, 40.730528397204424 ], [ -74.061391952915031, 40.730519487016693 ] ] ] } }
]
}
