{
"type": "FeatureCollection",
"name": "wardadistrict27",
"crs": { "type": "name", "properties": { "name": "urn:ogc:def:crs:OGC:1.3:CRS84" } },
"features": [
{ "type": "Feature", "properties": { "fid": 1 }, "geometry": { "type": "Polygon", "coordinates": [ [ [ -74.084035827763998, 40.695228216637013 ], [ -74.078998723610354, 40.699070828500545 ], [ -74.079794055845142, 40.700099428530258 ], [ -74.080449035332592, 40.699768386575833 ], [ -74.082320405296826, 40.701660032727403 ], [ -74.084160585761623, 40.699957553608378 ], [ -74.087388698949852, 40.697782100300934 ], [ -74.084035827763998, 40.695228216637013 ] ] ] } }
]
}
