{
"type": "FeatureCollection",
"name": "wardfdistrict14",
"crs": { "type": "name", "properties": { "name": "urn:ogc:def:crs:OGC:1.3:CRS84" } },
"features": [
{ "type": "Feature", "properties": { "fid": 1 }, "geometry": { "type": "Polygon", "coordinates": [ [ [ -74.074246346190577, 40.713956182615725 ], [ -74.074685067106444, 40.7134812650201 ], [ -74.0728620825832, 40.712502485452461 ], [ -74.071875179744112, 40.713731267253756 ], [ -74.07346643917657, 40.714575810006139 ], [ -74.071523511622942, 40.716791283849588 ], [ -74.075339635275242, 40.718355961361667 ], [ -74.076220976821887, 40.71783513616446 ], [ -74.077670349753745, 40.716795702100612 ], [ -74.074924426503472, 40.715372078890674 ], [ -74.075485535345507, 40.714636335225833 ], [ -74.074219470983167, 40.71406549638936 ], [ -74.074286127676388, 40.713977296243755 ], [ -74.074246346190577, 40.713956182615725 ] ] ] } }
]
}
