{
"type": "FeatureCollection",
"name": "wardedistrict5",
"crs": { "type": "name", "properties": { "name": "urn:ogc:def:crs:OGC:1.3:CRS84" } },
"features": [
{ "type": "Feature", "properties": { "fid": 1 }, "geometry": { "type": "Polygon", "coordinates": [ [ [ -74.04298541756441, 40.719419303316059 ], [ -74.046554888247556, 40.720606333716745 ], [ -74.048048238227281, 40.71801140260883 ], [ -74.046554888247556, 40.717459276556276 ], [ -74.046136021789849, 40.718135630339603 ], [ -74.044223805352445, 40.717486882967663 ], [ -74.04298541756441, 40.719419303316059 ] ] ] } }
]
}
