{
"type": "FeatureCollection",
"name": "wardadistrict10",
"crs": { "type": "name", "properties": { "name": "urn:ogc:def:crs:OGC:1.3:CRS84" } },
"features": [
{ "type": "Feature", "properties": { "fid": 1 }, "geometry": { "type": "Polygon", "coordinates": [ [ [ -74.097299162385312, 40.691237577418065 ], [ -74.101743666050311, 40.696321905654713 ], [ -74.102414240287487, 40.696144551898549 ], [ -74.102679351032421, 40.695482427037284 ], [ -74.100605249322086, 40.692550080694531 ], [ -74.101057497063437, 40.692278122679689 ], [ -74.101151065561638, 40.691864271396831 ], [ -74.101338202558068, 40.691556837351321 ], [ -74.10044930182508, 40.690811895127567 ], [ -74.099934675084924, 40.691060210127517 ], [ -74.099466832593876, 40.691142981588527 ], [ -74.099076963851331, 40.690539930018254 ], [ -74.099061369101619, 40.690327086984517 ], [ -74.098936611104008, 40.690007821159185 ], [ -74.098562337111147, 40.689806801151043 ], [ -74.09831282111594, 40.689747677503846 ], [ -74.097205593887111, 40.691131157100386 ], [ -74.097299162385312, 40.691237577418065 ] ] ] } }
]
}
