{
"type": "FeatureCollection",
"name": "wardddistrict10",
"crs": { "type": "name", "properties": { "name": "urn:ogc:def:crs:OGC:1.3:CRS84" } },
"features": [
{ "type": "Feature", "properties": { "fid": 1 }, "geometry": { "type": "Polygon", "coordinates": [ [ [ -74.054672139114373, 40.742972518843629 ], [ -74.05496205686471, 40.743480925380652 ], [ -74.05814139605485, 40.744736094840867 ], [ -74.05601041620119, 40.747850049926555 ], [ -74.05580938670559, 40.747697841704358 ], [ -74.055655782418299, 40.746902708948973 ], [ -74.055738501893842, 40.746485376767012 ], [ -74.055712787476935, 40.746374802275632 ], [ -74.055847499489715, 40.745742405295317 ], [ -74.053352603833403, 40.744789955459566 ], [ -74.054672139114373, 40.742972518843629 ] ] ] } }
]
}
