{
"type": "FeatureCollection",
"name": "wardfdistrict2",
"crs": { "type": "name", "properties": { "name": "urn:ogc:def:crs:OGC:1.3:CRS84" } },
"features": [
{ "type": "Feature", "properties": { "fid": 1 }, "geometry": { "type": "Polygon", "coordinates": [ [ [ -74.085924477731282, 40.705116500220306 ], [ -74.083340022117838, 40.707272656374904 ], [ -74.085150038441355, 40.708458099695626 ], [ -74.087229302209721, 40.705854054081307 ], [ -74.086779779676235, 40.705570502011803 ], [ -74.086033897457696, 40.70506222314841 ], [ -74.085924477731282, 40.705116500220306 ] ] ] } }
]
}
