{
"type": "FeatureCollection",
"name": "wardcdistrict18",
"crs": { "type": "name", "properties": { "name": "urn:ogc:def:crs:OGC:1.3:CRS84" } },
"features": [
{ "type": "Feature", "properties": { "fid": 1 }, "geometry": { "type": "Polygon", "coordinates": [ [ [ -74.067172712583528, 40.734844993346336 ], [ -74.066828824525729, 40.735752091019641 ], [ -74.069913004199449, 40.736661374518732 ], [ -74.071276718561151, 40.734445398331395 ], [ -74.06857146374854, 40.733868483368049 ], [ -74.067931010703902, 40.734986608505167 ], [ -74.067172712583528, 40.734844993346336 ] ] ] } }
]
}
