{
"type": "FeatureCollection",
"name": "wardcdistrict17",
"crs": { "type": "name", "properties": { "name": "urn:ogc:def:crs:OGC:1.3:CRS84" } },
"features": [
{ "type": "Feature", "properties": { "fid": 1 }, "geometry": { "type": "Polygon", "coordinates": [ [ [ -74.072544047240683, 40.732502080966896 ], [ -74.071285840396342, 40.73443057549968 ], [ -74.068521900067623, 40.733832924222639 ], [ -74.067887985193053, 40.734998474653906 ], [ -74.067220958096129, 40.73484399452061 ], [ -74.067329497676837, 40.733971025120873 ], [ -74.068739480298674, 40.731699121721213 ], [ -74.072544047240683, 40.732502080966896 ] ] ] } }
]
}
