{
"type": "FeatureCollection",
"name": "wardadistrict15",
"crs": { "type": "name", "properties": { "name": "urn:ogc:def:crs:OGC:1.3:CRS84" } },
"features": [
{ "type": "Feature", "properties": { "fid": 1 }, "geometry": { "type": "Polygon", "coordinates": [ [ [ -74.092004744861597, 40.689457970874244 ], [ -74.088823415922462, 40.691952954030988 ], [ -74.089915048401565, 40.69319449851568 ], [ -74.090897517632783, 40.692603289741534 ], [ -74.092254260856819, 40.694187717446759 ], [ -74.093111972090426, 40.693620165584846 ], [ -74.09172403936698, 40.692012075721507 ], [ -74.093361488085634, 40.690924228218364 ], [ -74.092004744861597, 40.689457970874244 ] ] ] } }
]
}
