{
"type": "FeatureCollection",
"name": "wardcdistrict2",
"crs": { "type": "name", "properties": { "name": "urn:ogc:def:crs:OGC:1.3:CRS84" } },
"features": [
{ "type": "Feature", "properties": { "fid": 1 }, "geometry": { "type": "Polygon", "coordinates": [ [ [ -74.088353220761675, 40.737641531887064 ], [ -74.077632310158762, 40.733088264319974 ], [ -74.076673552640258, 40.734146819026641 ], [ -74.07685630259266, 40.734277931096656 ], [ -74.076762691667028, 40.734644085821287 ], [ -74.079152439371825, 40.735255591994438 ], [ -74.079801590630026, 40.735484960544575 ], [ -74.0777325292825, 40.73734882516699 ], [ -74.077506619104966, 40.737501879963986 ], [ -74.075532822005442, 40.737070629244599 ], [ -74.074780339187811, 40.736937828468527 ], [ -74.074480065143277, 40.737497091685043 ], [ -74.074210994740596, 40.737934305108965 ], [ -74.081002781367005, 40.739668622411614 ], [ -74.084714162127653, 40.738917364558297 ], [ -74.088040795924854, 40.737863821161497 ], [ -74.088353220761675, 40.737641531887064 ] ] ] } }
]
}
