{
"type": "FeatureCollection",
"name": "wardadistrict25",
"crs": { "type": "name", "properties": { "name": "urn:ogc:def:crs:OGC:1.3:CRS84" } },
"features": [
{ "type": "Feature", "properties": { "fid": 1 }, "geometry": { "type": "Polygon", "coordinates": [ [ [ -74.08430093850896, 40.699969376530071 ], [ -74.083037763783111, 40.70105707634918 ], [ -74.08862068417632, 40.704698376914102 ], [ -74.089260068914086, 40.704213669818344 ], [ -74.08790332569005, 40.703315179042733 ], [ -74.08858949467691, 40.702818639466763 ], [ -74.08430093850896, 40.699969376530071 ] ] ] } }
]
}
