{
"type": "FeatureCollection",
"name": "wardadistrict23",
"crs": { "type": "name", "properties": { "name": "urn:ogc:def:crs:OGC:1.3:CRS84" } },
"features": [
{ "type": "Feature", "properties": { "fid": 1 }, "geometry": { "type": "Polygon", "coordinates": [ [ [ -74.092488182102329, 40.70189648471915 ], [ -74.095139289551597, 40.705017572343436 ], [ -74.094577878562362, 40.705206724468574 ], [ -74.092846861345464, 40.706719922130056 ], [ -74.089993022150068, 40.704899351992431 ], [ -74.09021134864588, 40.703823537154641 ], [ -74.090336106643505, 40.703575269724261 ], [ -74.090835138633935, 40.703173310970179 ], [ -74.092488182102329, 40.70189648471915 ] ] ] } }
]
}
