{
"type": "FeatureCollection",
"name": "wardddistrict30",
"crs": { "type": "name", "properties": { "name": "urn:ogc:def:crs:OGC:1.3:CRS84" } },
"features": [
{ "type": "Feature", "properties": { "fid": 1 }, "geometry": { "type": "Polygon", "coordinates": [ [ [ -74.044271791395616, 40.753457177960989 ], [ -74.046725609165819, 40.75440006741632 ], [ -74.047192963095171, 40.753804065445259 ], [ -74.048106226811967, 40.75405055538068 ], [ -74.048824496875952, 40.753634515153799 ], [ -74.050028005024672, 40.753344212399803 ], [ -74.045655123473225, 40.751601625062236 ], [ -74.044271791395616, 40.753457177960989 ] ] ] } }
]
}
