{
"type": "FeatureCollection",
"name": "wardbdistrict27",
"crs": { "type": "name", "properties": { "name": "urn:ogc:def:crs:OGC:1.3:CRS84" } },
"features": [
{ "type": "Feature", "properties": { "fid": 1 }, "geometry": { "type": "Polygon", "coordinates": [ [ [ -74.076173827500298, 40.725672202728639 ], [ -74.075665634435182, 40.726400823231799 ], [ -74.073371898168332, 40.725349525385781 ], [ -74.071723704443627, 40.726275917426385 ], [ -74.071339125907883, 40.726754721740768 ], [ -74.075445875271896, 40.7284305097131 ], [ -74.075761779069126, 40.728055803022038 ], [ -74.076393586663585, 40.728368058744451 ], [ -74.077396237846102, 40.727129435757831 ], [ -74.076462261402114, 40.726785947989448 ], [ -74.077162743735101, 40.725724247314851 ], [ -74.076421056558985, 40.725411979187143 ], [ -74.076173827500298, 40.725672202728639 ] ] ] } }
]
}
