{
"type": "FeatureCollection",
"name": "wardddistrict2",
"crs": { "type": "name", "properties": { "name": "urn:ogc:def:crs:OGC:1.3:CRS84" } },
"features": [
{ "type": "Feature", "properties": { "fid": 1 }, "geometry": { "type": "Polygon", "coordinates": [ [ [ -74.034354174668181, 40.730297083641808 ], [ -74.039650730916321, 40.730767784944959 ], [ -74.039341296379263, 40.732881567544801 ], [ -74.044096914657075, 40.73333875459457 ], [ -74.043844039986141, 40.735665302945783 ], [ -74.043863318197722, 40.736199946760905 ], [ -74.043483384785972, 40.736207812352745 ], [ -74.041746857811603, 40.736101771235468 ], [ -74.03857917396553, 40.736525415409929 ], [ -74.039004397836393, 40.734158286549885 ], [ -74.038330216367157, 40.733838861699859 ], [ -74.037575020957945, 40.733607545666992 ], [ -74.037065610651084, 40.733564585996533 ], [ -74.036070991887215, 40.733471991711546 ], [ -74.034930420554545, 40.733398882505035 ], [ -74.034756929522345, 40.733332504514387 ], [ -74.03438899333851, 40.733070531690394 ], [ -74.034231206882595, 40.732837134235282 ], [ -74.03417612995581, 40.732665406239718 ], [ -74.034233194269888, 40.732289675298809 ], [ -74.03429137078848, 40.731944788927606 ], [ -74.034354174668181, 40.730297083641808 ] ] ] } }
]
}
