{
"type": "FeatureCollection",
"name": "wardedistrict15",
"crs": { "type": "name", "properties": { "name": "urn:ogc:def:crs:OGC:1.3:CRS84" } },
"features": [
{ "type": "Feature", "properties": { "fid": 1 }, "geometry": { "type": "Polygon", "coordinates": [ [ [ -74.045662520576784, 40.723504807369899 ], [ -74.045443981555351, 40.72489879022379 ], [ -74.043823150479838, 40.724746971725764 ], [ -74.043641034628649, 40.726058120061566 ], [ -74.045225442533948, 40.726196134173243 ], [ -74.045116173023231, 40.726886200438379 ], [ -74.04686448519459, 40.727065616495253 ], [ -74.047392621163027, 40.72354621322193 ], [ -74.045808213257729, 40.723380589659236 ], [ -74.045662520576784, 40.723504807369899 ] ] ] } }
]
}
