{
"type": "FeatureCollection",
"name": "wardadistrict30",
"crs": { "type": "name", "properties": { "name": "urn:ogc:def:crs:OGC:1.3:CRS84" } },
"features": [
{ "type": "Feature", "properties": { "fid": 1 }, "geometry": { "type": "Polygon", "coordinates": [ [ [ -74.101938600421548, 40.690723210974781 ], [ -74.097946344497899, 40.680789838975222 ], [ -74.065758781113644, 40.667164521348589 ], [ -74.065010233127936, 40.669057093081136 ], [ -74.081977320803389, 40.676342992788456 ], [ -74.081228772817695, 40.677383770611833 ], [ -74.076987000898853, 40.675775288945488 ], [ -74.076238452913174, 40.676816075631507 ], [ -74.072869986977594, 40.675207580268363 ], [ -74.072495712984761, 40.675775288945488 ], [ -74.075489904927494, 40.677383770611833 ], [ -74.073493776965677, 40.679465277513707 ], [ -74.071996680994303, 40.679465277513707 ], [ -74.070374827025333, 40.678992213470352 ], [ -74.070125311030097, 40.679370664973611 ], [ -74.071497649003845, 40.679559889919524 ], [ -74.070624343020555, 40.680600617520717 ], [ -74.070998617013387, 40.682019765336655 ], [ -74.079981192841572, 40.688074456539141 ], [ -74.075988936917952, 40.688547456124411 ], [ -74.070998617013387, 40.684006521518654 ], [ -74.069501521042042, 40.684384944553244 ], [ -74.069751037037264, 40.691479978618332 ], [ -74.07885837086306, 40.699236351416694 ], [ -74.093455056583835, 40.687696054453696 ], [ -74.094328362567126, 40.687128447296807 ], [ -74.094577878562333, 40.686750039839751 ], [ -74.101938600421548, 40.690723210974781 ] ] ] } }
]
}
