{
"type": "FeatureCollection",
"name": "wardbdistrict14",
"crs": { "type": "name", "properties": { "name": "urn:ogc:def:crs:OGC:1.3:CRS84" } },
"features": [
{ "type": "Feature", "properties": { "fid": 1 }, "geometry": { "type": "Polygon", "coordinates": [ [ [ -74.089395378055968, 40.718156115757239 ], [ -74.087704393204731, 40.71985117197454 ], [ -74.088577159579572, 40.720333497156084 ], [ -74.087686210571903, 40.721160332193485 ], [ -74.09108636290722, 40.722621048992345 ], [ -74.093377374641193, 40.71943774760873 ], [ -74.092904626188144, 40.719148349024891 ], [ -74.092468243000724, 40.719727144934396 ], [ -74.089504473852827, 40.718211240215666 ], [ -74.089395378055968, 40.718156115757239 ] ] ] } }
]
}
