{
"type": "FeatureCollection",
"name": "wardfdistrict18",
"crs": { "type": "name", "properties": { "name": "urn:ogc:def:crs:OGC:1.3:CRS84" } },
"features": [
{ "type": "Feature", "properties": { "fid": 1 }, "geometry": { "type": "Polygon", "coordinates": [ [ [ -74.07258302359746, 40.720970754005997 ], [ -74.070813232196983, 40.722806115128478 ], [ -74.069751078910087, 40.722175062679163 ], [ -74.06939602708519, 40.721997878393147 ], [ -74.068559615153859, 40.7215877122797 ], [ -74.068433389434148, 40.721082636395167 ], [ -74.067890355640458, 40.720884322126963 ], [ -74.067357287858684, 40.720578964079955 ], [ -74.067170327259632, 40.720412346981419 ], [ -74.066820258440671, 40.720181636068155 ], [ -74.067013244055829, 40.720036919427635 ], [ -74.067214214864777, 40.71973917340447 ], [ -74.06729185893964, 40.719398443786204 ], [ -74.070303366952629, 40.720727026213744 ], [ -74.0707013469343, 40.720039570249035 ], [ -74.072679516405032, 40.720898396582868 ], [ -74.07258302359746, 40.720970754005997 ] ] ] } }
]
}
