{
"type": "FeatureCollection",
"name": "wardddistrict11",
"crs": { "type": "name", "properties": { "name": "urn:ogc:def:crs:OGC:1.3:CRS84" } },
"features": [
{ "type": "Feature", "properties": { "fid": 1 }, "geometry": { "type": "Polygon", "coordinates": [ [ [ -74.058825484056086, 40.744125231813499 ], [ -74.064542309355687, 40.746459515988199 ], [ -74.064041870365898, 40.747794911794728 ], [ -74.063421015457891, 40.748803580556945 ], [ -74.062633565341031, 40.749560560709781 ], [ -74.061470038076124, 40.748926261376212 ], [ -74.061950189958495, 40.748233244093619 ], [ -74.061713183981382, 40.747987137201534 ], [ -74.061124865632706, 40.747789451024836 ], [ -74.05976784207985, 40.747513030801116 ], [ -74.059657065267459, 40.747453598772921 ], [ -74.058928399425795, 40.748485078956456 ], [ -74.058646697097359, 40.748355116751043 ], [ -74.058199259540615, 40.74829853899567 ], [ -74.058071606691982, 40.748222997167865 ], [ -74.059505448367418, 40.746111117899218 ], [ -74.057862955882314, 40.745449663959775 ], [ -74.058825484056086, 40.744125231813499 ] ] ] } }
]
}
