{
"type": "FeatureCollection",
"name": "wardfdistrict8",
"crs": { "type": "name", "properties": { "name": "urn:ogc:def:crs:OGC:1.3:CRS84" } },
"features": [
{ "type": "Feature", "properties": { "fid": 1 }, "geometry": { "type": "Polygon", "coordinates": [ [ [ -74.076293473431889, 40.707616482202894 ], [ -74.073262513119261, 40.706597527347192 ], [ -74.073393907608946, 40.706038077104019 ], [ -74.071780838536796, 40.704799830683179 ], [ -74.06557748483614, 40.709237142241193 ], [ -74.069253434480132, 40.710424255478003 ], [ -74.066439884435681, 40.714368498978025 ], [ -74.0670803498449, 40.714798290259722 ], [ -74.067341013523006, 40.714419859531851 ], [ -74.068136643239257, 40.71484212787982 ], [ -74.069022173467005, 40.713177593223449 ], [ -74.069619060877756, 40.712595629694292 ], [ -74.068926887793168, 40.712093441554686 ], [ -74.069141806890684, 40.711668246720443 ], [ -74.069951611940397, 40.710727415700724 ], [ -74.070530527504999, 40.710517879822739 ], [ -74.07121490115982, 40.710162088038956 ], [ -74.07129650687088, 40.70991329228039 ], [ -74.071909323388311, 40.709249874102468 ], [ -74.072442576934094, 40.708544218633392 ], [ -74.072408758543077, 40.708548738880225 ], [ -74.07247839678368, 40.708473349238936 ], [ -74.075355214159018, 40.709354284512081 ], [ -74.076293473431889, 40.707616482202894 ] ] ] } }
]
}
