{
"type": "FeatureCollection",
"name": "wardedistrict10",
"crs": { "type": "name", "properties": { "name": "urn:ogc:def:crs:OGC:1.3:CRS84" } },
"features": [
{ "type": "Feature", "properties": { "fid": 1 }, "geometry": { "type": "Polygon", "coordinates": [ [ [ -74.041036777956748, 40.72089618676187 ], [ -74.03957985114728, 40.730833241953192 ], [ -74.034626299995153, 40.730391626562515 ], [ -74.034990531697503, 40.728707940998021 ], [ -74.034553453654681, 40.728183505645724 ], [ -74.034517030484423, 40.727686668341654 ], [ -74.034626299995153, 40.727327839092908 ], [ -74.034990531697503, 40.726913802940146 ], [ -74.035136224378448, 40.726416956156591 ], [ -74.035500456080811, 40.725588869940999 ], [ -74.035646148761771, 40.724871186886269 ], [ -74.035973957293891, 40.724208703351252 ], [ -74.036228919485552, 40.723104549472211 ], [ -74.036265342655781, 40.72235923524876 ], [ -74.036338188996254, 40.721862354463212 ], [ -74.039179196274688, 40.722221213180397 ], [ -74.03939773529612, 40.720675346461036 ], [ -74.041036777956748, 40.72089618676187 ] ] ] } }
]
}
