{
"type": "FeatureCollection",
"name": "wardfdistrict33",
"crs": { "type": "name", "properties": { "name": "urn:ogc:def:crs:OGC:1.3:CRS84" } },
"features": [
{ "type": "Feature", "properties": { "fid": 1 }, "geometry": { "type": "Polygon", "coordinates": [ [ [ -74.038546235053047, 40.711014745311154 ], [ -74.035180407618626, 40.710935980006617 ], [ -74.034604917038649, 40.714158191431281 ], [ -74.036029209817201, 40.714284997873754 ], [ -74.036224403295364, 40.712950594043505 ], [ -74.038108225900203, 40.713029200513212 ], [ -74.038546235053047, 40.711014745311154 ] ] ] } }
]
}
