{
"type": "FeatureCollection",
"name": "wardedistrict11",
"crs": { "type": "name", "properties": { "name": "urn:ogc:def:crs:OGC:1.3:CRS84" } },
"features": [
{ "type": "Feature", "properties": { "fid": 1 }, "geometry": { "type": "Polygon", "coordinates": [ [ [ -74.045061538267888, 40.720123242503426 ], [ -74.044697306565524, 40.720868581764343 ], [ -74.044460555958992, 40.72075816165971 ], [ -74.044333074863147, 40.72103421157783 ], [ -74.042766878542977, 40.720979001685798 ], [ -74.042639397447147, 40.721738133687261 ], [ -74.040927508446046, 40.721531098545491 ], [ -74.041273528563295, 40.718922400584226 ], [ -74.045061538267888, 40.720123242503426 ] ] ] } }
]
}
