{
"type": "FeatureCollection",
"name": "wardbdistrict7",
"crs": { "type": "name", "properties": { "name": "urn:ogc:def:crs:OGC:1.3:CRS84" } },
"features": [
{ "type": "Feature", "properties": { "fid": 1 }, "geometry": { "type": "Polygon", "coordinates": [ [ [ -74.088751614789814, 40.714035501520179 ], [ -74.086877146050796, 40.715484892087424 ], [ -74.083266592171015, 40.713635006457487 ], [ -74.083644001984226, 40.712586079399983 ], [ -74.082524352871673, 40.711985322824752 ], [ -74.083392395442075, 40.710850545615997 ], [ -74.088751614789814, 40.714035501520179 ] ] ] } }
]
}
