{
"type": "FeatureCollection",
"name": "wardadistrict3",
"crs": { "type": "name", "properties": { "name": "urn:ogc:def:crs:OGC:1.3:CRS84" } },
"features": [
{ "type": "Feature", "properties": { "fid": 1 }, "geometry": { "type": "Polygon", "coordinates": [ [ [ -74.099938573772306, 40.70634753683251 ], [ -74.095650017604356, 40.701535895095724 ], [ -74.094043758385084, 40.702410764903036 ], [ -74.0970535450775, 40.706063813303437 ], [ -74.09642975508946, 40.706442111073599 ], [ -74.097318655822434, 40.707151413600783 ], [ -74.097833282562604, 40.706654902624983 ], [ -74.09970465252681, 40.707848887052378 ], [ -74.099938573772306, 40.70634753683251 ] ] ] } }
]
}
