{
"type": "FeatureCollection",
"name": "wardedistrict23",
"crs": { "type": "name", "properties": { "name": "urn:ogc:def:crs:OGC:1.3:CRS84" } },
"features": [
{ "type": "Feature", "properties": { "fid": 1 }, "geometry": { "type": "Polygon", "coordinates": [ [ [ -74.042074838308508, 40.724526144201313 ], [ -74.042038415138279, 40.72521622778239 ], [ -74.040581488328812, 40.725009203459379 ], [ -74.040089775530618, 40.727838480133656 ], [ -74.041747029776388, 40.727907485379184 ], [ -74.041765241361503, 40.728142102678731 ], [ -74.043149321830484, 40.72829391343177 ], [ -74.043768515724494, 40.724719368325275 ], [ -74.04232980050017, 40.724608954608847 ], [ -74.042074838308508, 40.724526144201313 ] ] ] } }
]
}
