{
"type": "FeatureCollection",
"name": "wardadistrict1",
"crs": { "type": "name", "properties": { "name": "urn:ogc:def:crs:OGC:1.3:CRS84" } },
"features": [
{ "type": "Feature", "properties": { "fid": 1, "district": null }, "geometry": { "type": "Polygon", "coordinates": [ [ [ -74.101904739978679, 40.702949642832039 ], [ -74.099877171768654, 40.706512827131327 ], [ -74.0992320364291, 40.710984004379767 ], [ -74.096974062740657, 40.714686470791435 ], [ -74.103148929562124, 40.716572553767044 ], [ -74.106282444068555, 40.714197477594112 ], [ -74.100983118065031, 40.710809354652923 ], [ -74.101720415595977, 40.710005960009276 ], [ -74.101167442447775, 40.707840239209645 ], [ -74.106282444068555, 40.706023773906558 ], [ -74.10632852516423, 40.704137392112983 ], [ -74.104393119145541, 40.704556592684483 ], [ -74.104208794762826, 40.703333916976064 ], [ -74.102918524083705, 40.702879774567656 ], [ -74.102042983265747, 40.702879774567656 ], [ -74.101904739978679, 40.702949642832039 ] ] ] } }
]
}
