{
"type": "FeatureCollection",
"name": "wardadistrict22",
"crs": { "type": "name", "properties": { "name": "urn:ogc:def:crs:OGC:1.3:CRS84" } },
"features": [
{ "type": "Feature", "properties": { "fid": 1 }, "geometry": { "type": "Polygon", "coordinates": [ [ [ -74.089571963908114, 40.699259997513984 ], [ -74.087435483198988, 40.701104367242763 ], [ -74.09072597538605, 40.70322060036127 ], [ -74.092410208353826, 40.701861016973893 ], [ -74.089571963908114, 40.699259997513984 ] ] ] } },
{ "type": "Feature", "properties": { "fid": 2 }, "geometry": { "type": "Polygon", "coordinates": [ [ [ -74.082242431548281, 40.701624564856253 ], [ -74.081119609569782, 40.702771349790282 ], [ -74.078718018115737, 40.701009785422023 ], [ -74.07831255462348, 40.701116189960935 ], [ -74.077423653890477, 40.70037135461925 ], [ -74.079092292108555, 40.699307289683425 ], [ -74.079794055845142, 40.700111251426776 ], [ -74.080480224832002, 40.699803855435349 ], [ -74.082242431548281, 40.701624564856253 ] ] ] } }
]
}
