{
"type": "FeatureCollection",
"name": "wardcdistrict23",
"crs": { "type": "name", "properties": { "name": "urn:ogc:def:crs:OGC:1.3:CRS84" } },
"features": [
{ "type": "Feature", "properties": { "fid": 1 }, "geometry": { "type": "Polygon", "coordinates": [ [ [ -74.054086411445851, 40.727703316793409 ], [ -74.054664355457788, 40.728467025485102 ], [ -74.055199537316383, 40.729919458181996 ], [ -74.055622304786979, 40.730664402043807 ], [ -74.054777717932765, 40.731611192392023 ], [ -74.055892848081896, 40.732275927784563 ], [ -74.056749298450981, 40.731658180425256 ], [ -74.058171248549826, 40.733333649384363 ], [ -74.057014990444614, 40.73420636719878 ], [ -74.05658647487644, 40.735444486028811 ], [ -74.052525891517121, 40.731826111756611 ], [ -74.051868592668058, 40.731539711404629 ], [ -74.054086411445851, 40.727703316793409 ] ] ] } }
]
}
