{
"type": "FeatureCollection",
"name": "wardfdistrict32",
"crs": { "type": "name", "properties": { "name": "urn:ogc:def:crs:OGC:1.3:CRS84" } },
"features": [
{ "type": "Feature", "properties": { "fid": 1 }, "geometry": { "type": "Polygon", "coordinates": [ [ [ -74.038566125795938, 40.711025302592404 ], [ -74.038153970480792, 40.713075948290047 ], [ -74.039703570811554, 40.713291732146303 ], [ -74.040155548893395, 40.711037533451361 ], [ -74.039620459012639, 40.710910814697954 ], [ -74.039512999463852, 40.711123414872866 ], [ -74.038566125795938, 40.711025302592404 ] ] ] } }
]
}
