{
"type": "FeatureCollection",
"name": "wardedistrict20",
"crs": { "type": "name", "properties": { "name": "urn:ogc:def:crs:OGC:1.3:CRS84" } },
"features": [
{ "type": "Feature", "properties": { "fid": 1 }, "geometry": { "type": "Polygon", "coordinates": [ [ [ -74.043641034628678, 40.726030517204883 ], [ -74.043185745000713, 40.728928754646731 ], [ -74.046482041907112, 40.729246172983061 ], [ -74.046846273609475, 40.727134622542167 ], [ -74.045097961438117, 40.726900001690687 ], [ -74.045189019363718, 40.726237538350922 ], [ -74.043641034628678, 40.726030517204883 ] ] ] } }
]
}
