{
"type": "FeatureCollection",
"name": "wardfdistrict15",
"crs": { "type": "name", "properties": { "name": "urn:ogc:def:crs:OGC:1.3:CRS84" } },
"features": [
{ "type": "Feature", "properties": { "fid": 1 }, "geometry": { "type": "Polygon", "coordinates": [ [ [ -74.071543402365847, 40.716801840214892 ], [ -74.070994405477379, 40.716577880696619 ], [ -74.071373454164544, 40.716071312368747 ], [ -74.069456917100197, 40.715402411294306 ], [ -74.068259469608748, 40.714901698780864 ], [ -74.069197728881619, 40.713164041247303 ], [ -74.069686197295184, 40.712603176018206 ], [ -74.073482347642781, 40.714606721630119 ], [ -74.071543402365847, 40.716801840214892 ] ] ] } }
]
}
