{
"type": "FeatureCollection",
"name": "wardcdistrict11",
"crs": { "type": "name", "properties": { "name": "urn:ogc:def:crs:OGC:1.3:CRS84" } },
"features": [
{ "type": "Feature", "properties": { "fid": 1 }, "geometry": { "type": "Polygon", "coordinates": [ [ [ -74.070093413741048, 40.729479523997043 ], [ -74.069431553974368, 40.729200525544513 ], [ -74.069961938584029, 40.728377289079482 ], [ -74.067296914931134, 40.727309199412581 ], [ -74.067010499564134, 40.728471327982959 ], [ -74.066994892230369, 40.728574098108915 ], [ -74.068075512291202, 40.729353000484153 ], [ -74.066946672363102, 40.73031667094525 ], [ -74.067065071179982, 40.731324019208778 ], [ -74.068709478456469, 40.731670473704241 ], [ -74.070093413741048, 40.729479523997043 ] ] ] } }
]
}
