{
"type": "FeatureCollection",
"name": "wardcdistrict12",
"crs": { "type": "name", "properties": { "name": "urn:ogc:def:crs:OGC:1.3:CRS84" } },
"features": [
{ "type": "Feature", "properties": { "fid": 1 }, "geometry": { "type": "Polygon", "coordinates": [ [ [ -74.068026607694449, 40.729335719161426 ], [ -74.066979257870457, 40.730283067776128 ], [ -74.067053313008159, 40.731265723960007 ], [ -74.064335746282552, 40.730882947231635 ], [ -74.064987509100888, 40.730346258044371 ], [ -74.062725823449043, 40.72868078287312 ], [ -74.063632997652832, 40.727728996081879 ], [ -74.064071346811915, 40.726629569351836 ], [ -74.068025289526133, 40.729299158684597 ], [ -74.068026607694449, 40.729335719161426 ] ] ] } }
]
}
