{
"type": "FeatureCollection",
"name": "wardbdistrict29",
"crs": { "type": "name", "properties": { "name": "urn:ogc:def:crs:OGC:1.3:CRS84" } },
"features": [
{ "type": "Feature", "properties": { "fid": 1 }, "geometry": { "type": "Polygon", "coordinates": [ [ [ -74.069237678908905, 40.724808256652317 ], [ -74.068235027726402, 40.725297480506526 ], [ -74.068097678249345, 40.725422388148338 ], [ -74.067630690027329, 40.726327961540456 ], [ -74.07493768220678, 40.729190325137409 ], [ -74.075404670428782, 40.728420101222397 ], [ -74.070460089254738, 40.726192646759173 ], [ -74.070995752215239, 40.725484841881325 ], [ -74.06929261869972, 40.72478743853619 ], [ -74.069237678908905, 40.724808256652317 ] ] ] } }
]
}
