{
"type": "FeatureCollection",
"name": "wardbdistrict31",
"crs": { "type": "name", "properties": { "name": "urn:ogc:def:crs:OGC:1.3:CRS84" } },
"features": [
{ "type": "Feature", "properties": { "fid": 1 }, "geometry": { "type": "Polygon", "coordinates": [ [ [ -74.067424665811771, 40.721727104630432 ], [ -74.065982496302667, 40.721456456084155 ], [ -74.064293097734875, 40.723725705979284 ], [ -74.067177436753056, 40.724756211349813 ], [ -74.068015268563116, 40.725224617607225 ], [ -74.068221292778702, 40.725307889485649 ], [ -74.069443703124506, 40.724683347857905 ], [ -74.068880570268576, 40.723215651963599 ], [ -74.068111413197045, 40.723652841359211 ], [ -74.067562015288829, 40.721727104630432 ], [ -74.067507075498014, 40.72168546646418 ], [ -74.067424665811771, 40.721727104630432 ] ] ] } }
]
}
