{
"type": "FeatureCollection",
"name": "wardedistrict27",
"crs": { "type": "name", "properties": { "name": "urn:ogc:def:crs:OGC:1.3:CRS84" } },
"features": [
{ "type": "Feature", "properties": { "fid": 1 }, "geometry": { "type": "Polygon", "coordinates": [ [ [ -74.026248970840783, 40.729163368345638 ], [ -74.031184310407824, 40.729673995301596 ], [ -74.032859776238681, 40.729977609471888 ], [ -74.033078315260113, 40.729108165196777 ], [ -74.031803504301834, 40.728790746202144 ], [ -74.032022043323252, 40.727010411606187 ], [ -74.031712446376247, 40.727010411606187 ], [ -74.031348214673869, 40.727314037929311 ], [ -74.026303605596141, 40.726982809144481 ], [ -74.026248970840783, 40.729163368345638 ] ] ] } }
]
}
