{
"type": "FeatureCollection",
"name": "wardfdistrict28",
"crs": { "type": "name", "properties": { "name": "urn:ogc:def:crs:OGC:1.3:CRS84" } },
"features": [
{ "type": "Feature", "properties": { "fid": 1 }, "geometry": { "type": "Polygon", "coordinates": [ [ [ -74.04788904496661, 40.715276873062464 ], [ -74.048022110667716, 40.716448427027203 ], [ -74.047167726890265, 40.716410642822993 ], [ -74.046572737735858, 40.717487866513274 ], [ -74.048016859335974, 40.717962200418235 ], [ -74.049490394253652, 40.715340369116326 ], [ -74.048053174556273, 40.715195469859864 ], [ -74.04788904496661, 40.715276873062464 ] ] ] } }
]
}
