{
"type": "FeatureCollection",
"name": "wardbdistrict30",
"crs": { "type": "name", "properties": { "name": "urn:ogc:def:crs:OGC:1.3:CRS84" } },
"features": [
{ "type": "Feature", "properties": { "fid": 1 }, "geometry": { "type": "Polygon", "coordinates": [ [ [ -74.071009487162954, 40.722955418817072 ], [ -74.068592136366746, 40.721612599610538 ], [ -74.068372377203445, 40.721029661909817 ], [ -74.067218641596185, 40.720529996960138 ], [ -74.068138883092445, 40.723621613640475 ], [ -74.068866835320847, 40.723163605415685 ], [ -74.069429968176806, 40.724662529702726 ], [ -74.069869486503379, 40.724412711332484 ], [ -74.070240330091423, 40.723881844182252 ], [ -74.071009487162954, 40.722955418817072 ] ] ] } }
]
}
