{
"type": "FeatureCollection",
"name": "wardedistrict18",
"crs": { "type": "name", "properties": { "name": "urn:ogc:def:crs:OGC:1.3:CRS84" } },
"features": [
{ "type": "Feature", "properties": { "fid": 1 }, "geometry": { "type": "Polygon", "coordinates": [ [ [ -74.054021638146025, 40.727686668341654 ], [ -74.056461990551853, 40.723394391638536 ], [ -74.051435593059239, 40.721862354463212 ], [ -74.050652494899168, 40.721889959048603 ], [ -74.04983297356884, 40.721613912679459 ], [ -74.049359472355761, 40.722248817616972 ], [ -74.04921377967483, 40.723270173721808 ], [ -74.049578011377193, 40.723435797559269 ], [ -74.054021638146025, 40.727686668341654 ] ] ] } }
]
}
