{
"type": "FeatureCollection",
"name": "wardfdistrict27",
"crs": { "type": "name", "properties": { "name": "urn:ogc:def:crs:OGC:1.3:CRS84" } },
"features": [
{ "type": "Feature", "properties": { "fid": 1 }, "geometry": { "type": "Polygon", "coordinates": [ [ [ -74.05110626976176, 40.712131141529696 ], [ -74.042078131614332, 40.711282766899664 ], [ -74.041611225155094, 40.713585206132599 ], [ -74.041813093491101, 40.713815924262278 ], [ -74.041973178882728, 40.714091871601532 ], [ -74.042464484360593, 40.714330157570949 ], [ -74.04286630213582, 40.71440860596347 ], [ -74.049556050217618, 40.715285341864316 ], [ -74.05110626976176, 40.712131141529696 ] ] ] } }
]
}
