{
"type": "FeatureCollection",
"name": "wardddistrict5",
"crs": { "type": "name", "properties": { "name": "urn:ogc:def:crs:OGC:1.3:CRS84" } },
"features": [
{ "type": "Feature", "properties": { "fid": 1 }, "geometry": { "type": "Polygon", "coordinates": [ [ [ -74.04410567702665, 40.737950251600388 ], [ -74.045836761489284, 40.73820662106715 ], [ -74.046790006089893, 40.737528391746395 ], [ -74.047032766058095, 40.737482209918305 ], [ -74.047332145147891, 40.737801145257599 ], [ -74.0475729177288, 40.738302377584546 ], [ -74.047659581574507, 40.738596903736656 ], [ -74.047716882910308, 40.738830303434696 ], [ -74.049294154914932, 40.739641331006936 ], [ -74.048722267410014, 40.740200527129616 ], [ -74.048445132410521, 40.740498460524208 ], [ -74.04759338104914, 40.741882401950996 ], [ -74.04471045507006, 40.740863852150603 ], [ -74.044634001246266, 40.740890127282263 ], [ -74.044518864498968, 40.740935722508468 ], [ -74.044458530427903, 40.740919481014551 ], [ -74.044432660271269, 40.740879891331851 ], [ -74.045194989302288, 40.739652111080638 ], [ -74.045127314603747, 40.739620588162069 ], [ -74.044898583303947, 40.739905175723976 ], [ -74.044511057040765, 40.740192020469728 ], [ -74.044230956162608, 40.740407706591704 ], [ -74.044119497135952, 40.7404799763382 ], [ -74.043996233849953, 40.740375526686591 ], [ -74.043787937796196, 40.74039835815222 ], [ -74.043628386549273, 40.740341987179697 ], [ -74.043987781406315, 40.739387988747254 ], [ -74.043970475379794, 40.739209322474032 ], [ -74.043659069434383, 40.73908407257629 ], [ -74.043898715385282, 40.738574958379452 ], [ -74.04410567702665, 40.737950251600388 ] ] ] } }
]
}
