{
"type": "FeatureCollection",
"name": "wardcdistrict26",
"crs": { "type": "name", "properties": { "name": "urn:ogc:def:crs:OGC:1.3:CRS84" } },
"features": [
{ "type": "Feature", "properties": { "fid": 1 }, "geometry": { "type": "Polygon", "coordinates": [ [ [ -74.055434604090053, 40.741727627089233 ], [ -74.056488860784626, 40.74177530687362 ], [ -74.056501937124764, 40.74187014650316 ], [ -74.057213386908103, 40.742252320232353 ], [ -74.057030291120029, 40.74253046477773 ], [ -74.059139423744469, 40.743379363359558 ], [ -74.058155478368676, 40.744745862642397 ], [ -74.055004651497441, 40.743461296416505 ], [ -74.054623037628204, 40.742920493868851 ], [ -74.05405028659186, 40.743773691247995 ], [ -74.05163890775799, 40.74277741696946 ], [ -74.048949708677327, 40.741574709244951 ], [ -74.049336068504829, 40.740908249397876 ], [ -74.051938557479659, 40.742116422207644 ], [ -74.053090703065436, 40.740728096220245 ], [ -74.055434604090053, 40.741727627089233 ] ] ] } }
]
}
