{
"type": "FeatureCollection",
"name": "wardcdistrict1",
"crs": { "type": "name", "properties": { "name": "urn:ogc:def:crs:OGC:1.3:CRS84" } },
"features": [
{ "type": "Feature", "properties": { "fid": 1 }, "geometry": { "type": "Polygon", "coordinates": [ [ [ -74.075815447371014, 40.72804750824487 ], [ -74.092386289611696, 40.735028126608881 ], [ -74.088583316775228, 40.737651960302074 ], [ -74.081098147819944, 40.734385424043062 ], [ -74.077613573535231, 40.732815483522359 ], [ -74.076707793980233, 40.734109013791411 ], [ -74.072079844881088, 40.733139143413872 ], [ -74.074823623975661, 40.729251127871727 ], [ -74.075815447371014, 40.72804750824487 ] ] ] } }
]
}
