{
"type": "FeatureCollection",
"name": "wardfdistrict22",
"crs": { "type": "name", "properties": { "name": "urn:ogc:def:crs:OGC:1.3:CRS84" } },
"features": [
{ "type": "Feature", "properties": { "fid": 1 }, "geometry": { "type": "Polygon", "coordinates": [ [ [ -74.056140641992613, 40.71601919408036 ], [ -74.05659625146356, 40.715654360875639 ], [ -74.0556618819177, 40.712462219480258 ], [ -74.051391046321513, 40.71179077180485 ], [ -74.047769321157901, 40.71863122426393 ], [ -74.055338058440213, 40.720962903082309 ], [ -74.055909215855934, 40.719670888039566 ], [ -74.056301439147276, 40.717834541187123 ], [ -74.056454725838421, 40.717219401207217 ], [ -74.056140641992613, 40.71601919408036 ] ] ] } }
]
}
