{
"type": "FeatureCollection",
"name": "wardfdistrict19",
"crs": { "type": "name", "properties": { "name": "urn:ogc:def:crs:OGC:1.3:CRS84" } },
"features": [
{ "type": "Feature", "properties": { "fid": 1 }, "geometry": { "type": "Polygon", "coordinates": [ [ [ -74.067278612426207, 40.715706752977191 ], [ -74.062394753908166, 40.71682198299527 ], [ -74.060944813696366, 40.715535705349254 ], [ -74.058135596816186, 40.717549773463169 ], [ -74.057308067605689, 40.717515008190787 ], [ -74.056715595920991, 40.715717700124117 ], [ -74.057803871371391, 40.714924719757796 ], [ -74.058410518389564, 40.715359027233369 ], [ -74.059512721488062, 40.714550966036057 ], [ -74.060238712963681, 40.715048615834753 ], [ -74.062723632300802, 40.713289261856652 ], [ -74.063360094792912, 40.713851747880106 ], [ -74.064579682171185, 40.712948686967977 ], [ -74.067137540890897, 40.714800557993293 ], [ -74.067278612426207, 40.715706752977191 ] ] ] } }
]
}
