{
"type": "FeatureCollection",
"name": "wardedistrict12",
"crs": { "type": "name", "properties": { "name": "urn:ogc:def:crs:OGC:1.3:CRS84" } },
"features": [
{ "type": "Feature", "properties": { "fid": 1 }, "geometry": { "type": "Polygon", "coordinates": [ [ [ -74.040508641988311, 40.725023005100937 ], [ -74.041983780382907, 40.725230029381031 ], [ -74.042329800500156, 40.723076945390531 ], [ -74.044005266331027, 40.723228767698053 ], [ -74.044351286448261, 40.721144631224533 ], [ -74.042785090128106, 40.72100660663753 ], [ -74.042675820617404, 40.721820947563657 ], [ -74.041000354786533, 40.721572505625353 ], [ -74.040508641988311, 40.725023005100937 ] ] ] } }
]
}
