{
"type": "FeatureCollection",
"name": "wardadistrict33",
"crs": { "type": "name", "properties": { "name": "urn:ogc:def:crs:OGC:1.3:CRS84" } },
"features": [
{ "type": "Feature", "properties": { "fid": 1 }, "geometry": { "type": "Polygon", "coordinates": [ [ [ -74.065489340804376, 40.709380441181473 ], [ -74.062552036146442, 40.711475992110486 ], [ -74.061990492608899, 40.711001224631232 ], [ -74.06071622073523, 40.711770673670841 ], [ -74.061450546899721, 40.712376403893728 ], [ -74.057886905219135, 40.714995714393488 ], [ -74.058362057443205, 40.715421342616729 ], [ -74.059636329316874, 40.714635565310047 ], [ -74.06028426416789, 40.715143047547926 ], [ -74.06272481877339, 40.713456881961072 ], [ -74.061558536041545, 40.712409145910947 ], [ -74.062076883922373, 40.712867532461573 ], [ -74.066763612678045, 40.709593273581497 ], [ -74.065489340804376, 40.709380441181473 ] ] ] } }
]
}
