{
"type": "FeatureCollection",
"name": "wardcdistrict4",
"crs": { "type": "name", "properties": { "name": "urn:ogc:def:crs:OGC:1.3:CRS84" } },
"features": [
{ "type": "Feature", "properties": { "fid": 1 }, "geometry": { "type": "Polygon", "coordinates": [ [ [ -74.072057657228925, 40.73326438307695 ], [ -74.075311627760925, 40.733898478558721 ], [ -74.073849869630195, 40.736559164633 ], [ -74.072936314077239, 40.7364027192205 ], [ -74.072310540637915, 40.73756223881464 ], [ -74.07141137182667, 40.737311075487369 ], [ -74.072799884065105, 40.734840788184925 ], [ -74.071287627954462, 40.734372985835599 ], [ -74.072057657228925, 40.73326438307695 ] ] ] } }
]
}
