{
"type": "FeatureCollection",
"name": "wardddistrict27",
"crs": { "type": "name", "properties": { "name": "urn:ogc:def:crs:OGC:1.3:CRS84" } },
"features": [
{ "type": "Feature", "properties": { "fid": 1 }, "geometry": { "type": "Polygon", "coordinates": [ [ [ -74.046590319024219, 40.754489273456109 ], [ -74.050637454482427, 40.75601017402645 ], [ -74.051431400060054, 40.75498157403517 ], [ -74.052289675733221, 40.755284743680008 ], [ -74.053912535250859, 40.752615754036832 ], [ -74.053177493235992, 40.752340881841612 ], [ -74.052212755855422, 40.752700311265208 ], [ -74.05156597913647, 40.753065501781151 ], [ -74.051182086152366, 40.753264778476918 ], [ -74.050947764202263, 40.753319003981801 ], [ -74.05024146173848, 40.753389170073788 ], [ -74.0494570815857, 40.753553531195777 ], [ -74.049021448288357, 40.75367364231829 ], [ -74.04864525185269, 40.75386041408003 ], [ -74.048216291782424, 40.754165543188435 ], [ -74.047133526233495, 40.753737404532515 ], [ -74.046590319024219, 40.754489273456109 ] ] ] } }
]
}
