{
"type": "FeatureCollection",
"name": "wardadistrict14",
"crs": { "type": "name", "properties": { "name": "urn:ogc:def:crs:OGC:1.3:CRS84" } },
"features": [
{ "type": "Feature", "properties": { "fid": 1 }, "geometry": { "type": "Polygon", "coordinates": [ [ [ -74.098258239491983, 40.69629234672815 ], [ -74.093704572579085, 40.690758684650049 ], [ -74.091770823616088, 40.691952954030988 ], [ -74.093111972090426, 40.693549221262167 ], [ -74.093626598830568, 40.693099905464351 ], [ -74.097338149259571, 40.697474693561439 ], [ -74.098445376488385, 40.696457876548038 ], [ -74.098258239491983, 40.69629234672815 ] ] ] } }
]
}
