{
"type": "FeatureCollection",
"name": "wardbdistrict28",
"crs": { "type": "name", "properties": { "name": "urn:ogc:def:crs:OGC:1.3:CRS84" } },
"features": [
{ "type": "Feature", "properties": { "fid": 1 }, "geometry": { "type": "Polygon", "coordinates": [ [ [ -74.070212860196023, 40.723975526928207 ], [ -74.073138404057346, 40.725318298463115 ], [ -74.072204427613343, 40.725849154155675 ], [ -74.071339125907883, 40.726338370358391 ], [ -74.071270451169354, 40.72650491122392 ], [ -74.070487559150138, 40.726223873271586 ], [ -74.070995752215254, 40.7254744329299 ], [ -74.069306353647448, 40.724777029475682 ], [ -74.06978707681715, 40.724443938680047 ], [ -74.070212860196023, 40.723975526928207 ] ] ] } }
]
}
