{
"type": "FeatureCollection",
"name": "wardddistrict25",
"crs": { "type": "name", "properties": { "name": "urn:ogc:def:crs:OGC:1.3:CRS84" } },
"features": [
{ "type": "Feature", "properties": { "fid": 1 }, "geometry": { "type": "Polygon", "coordinates": [ [ [ -74.042992810633024, 40.747814477707699 ], [ -74.040549623720452, 40.751571510875777 ], [ -74.038766495066241, 40.750926395191776 ], [ -74.038074940713926, 40.750727768435674 ], [ -74.039557972388721, 40.747796074408939 ], [ -74.040240273572294, 40.746834470213365 ], [ -74.042992810633024, 40.747814477707699 ] ] ] } }
]
}
