{
"type": "FeatureCollection",
"name": "wardedistrict1",
"crs": { "type": "name", "properties": { "name": "urn:ogc:def:crs:OGC:1.3:CRS84" } },
"features": [
{ "type": "Feature", "properties": { "fid": 1 }, "geometry": { "type": "Polygon", "coordinates": [ [ [ -74.037722269465249, 40.715292137540438 ], [ -74.030036980545376, 40.714229247398691 ], [ -74.028580053735922, 40.720965199205608 ], [ -74.033497181717834, 40.721434481925591 ], [ -74.034371337803506, 40.717086588882104 ], [ -74.037121287156339, 40.717652521195561 ], [ -74.037722269465249, 40.715292137540438 ] ] ] } }
]
}
