{
"type": "FeatureCollection",
"name": "wardfdistrict5",
"crs": { "type": "name", "properties": { "name": "urn:ogc:def:crs:OGC:1.3:CRS84" } },
"features": [
{ "type": "Feature", "properties": { "fid": 1 }, "geometry": { "type": "Polygon", "coordinates": [ [ [ -74.082538264183256, 40.707723452606835 ], [ -74.078884413145161, 40.70535703917183 ], [ -74.078719324107141, 40.705246936826995 ], [ -74.078556153965863, 40.705519869533987 ], [ -74.077213549460183, 40.704694842516503 ], [ -74.076340110545544, 40.705512095526757 ], [ -74.075319678281687, 40.705172685176095 ], [ -74.074340616153265, 40.7070349548612 ], [ -74.076315845357513, 40.707656445496106 ], [ -74.077235193976293, 40.705987210783185 ], [ -74.07813027740707, 40.706462322650154 ], [ -74.078355162516488, 40.705930025116956 ], [ -74.081917524393376, 40.708202915894454 ], [ -74.082538264183256, 40.707723452606835 ] ] ] } }
]
}
