{
"type": "FeatureCollection",
"name": "wardadistrict18",
"crs": { "type": "name", "properties": { "name": "urn:ogc:def:crs:OGC:1.3:CRS84" } },
"features": [
{ "type": "Feature", "properties": { "fid": 1 }, "geometry": { "type": "Polygon", "coordinates": [ [ [ -74.091209412626782, 40.69508633134064 ], [ -74.090570027889015, 40.695606575950038 ], [ -74.089696721905725, 40.696079522069667 ], [ -74.092191881858014, 40.698976243792359 ], [ -74.092113908109482, 40.702180226001289 ], [ -74.095123694801913, 40.699555573022089 ], [ -74.091209412626782, 40.69508633134064 ] ] ] } }
]
}
