{
"type": "FeatureCollection",
"name": "wardddistrict19",
"crs": { "type": "name", "properties": { "name": "urn:ogc:def:crs:OGC:1.3:CRS84" } },
"features": [
{ "type": "Feature", "properties": { "fid": 1 }, "geometry": { "type": "Polygon", "coordinates": [ [ [ -74.046370346376435, 40.750423366875992 ], [ -74.052130785450629, 40.752686577799693 ], [ -74.0512870573193, 40.753012640860632 ], [ -74.051104475682465, 40.75314603140415 ], [ -74.050135289483819, 40.753382109614279 ], [ -74.045612748015174, 40.751556211239183 ], [ -74.046370346376435, 40.750423366875992 ] ] ] } }
]
}
