{
"type": "FeatureCollection",
"name": "wardcdistrict3",
"crs": { "type": "name", "properties": { "name": "urn:ogc:def:crs:OGC:1.3:CRS84" } },
"features": [
{ "type": "Feature", "properties": { "fid": 1 }, "geometry": { "type": "Polygon", "coordinates": [ [ [ -74.075222682943149, 40.733900320007372 ], [ -74.07695851617737, 40.734397220743197 ], [ -74.076855281722445, 40.73474333987572 ], [ -74.079811214159335, 40.735504995256832 ], [ -74.077576316864082, 40.737459970386098 ], [ -74.074690179290826, 40.736905972468456 ], [ -74.074012642967247, 40.737864222938413 ], [ -74.072527945260816, 40.737173303910545 ], [ -74.072982001565293, 40.736435496150811 ], [ -74.073825859359147, 40.736633851610961 ], [ -74.075214274493064, 40.733913983709066 ], [ -74.076655520660864, 40.734140447560563 ], [ -74.076803421733686, 40.734292515439698 ], [ -74.076849109221797, 40.734325293409647 ], [ -74.075222682943149, 40.733900320007372 ] ] ] } }
]
}
