{
"type": "FeatureCollection",
"name": "wardcdistrict15",
"crs": { "type": "name", "properties": { "name": "urn:ogc:def:crs:OGC:1.3:CRS84" } },
"features": [
{ "type": "Feature", "properties": { "fid": 1 }, "geometry": { "type": "Polygon", "coordinates": [ [ [ -74.055560678717001, 40.730417038159473 ], [ -74.059547631072277, 40.727440379597084 ], [ -74.060493111854811, 40.726077980204565 ], [ -74.060288371632595, 40.726023676192597 ], [ -74.059708951437827, 40.724817229554709 ], [ -74.056228209645283, 40.723487882534634 ], [ -74.054241283769997, 40.727568543283731 ], [ -74.054813955108656, 40.728186009289004 ], [ -74.055200551267504, 40.72980250973162 ], [ -74.055560678717001, 40.730417038159473 ] ] ] } }
]
}
