{
"type": "FeatureCollection",
"name": "wardfdistrict26",
"crs": { "type": "name", "properties": { "name": "urn:ogc:def:crs:OGC:1.3:CRS84" } },
"features": [
{ "type": "Feature", "properties": { "fid": 1 }, "geometry": { "type": "Polygon", "coordinates": [ [ [ -74.042953809020332, 40.714522454480395 ], [ -74.042686016394583, 40.715807062598941 ], [ -74.044790617989477, 40.716047774387519 ], [ -74.04489417782338, 40.715406226438319 ], [ -74.047836336561971, 40.715237665033953 ], [ -74.04790599544306, 40.715049952574503 ], [ -74.04295082747295, 40.714509637832691 ], [ -74.042953809020332, 40.714522454480395 ] ] ] } }
]
}
