{
"type": "FeatureCollection",
"name": "wardedistrict13",
"crs": { "type": "name", "properties": { "name": "urn:ogc:def:crs:OGC:1.3:CRS84" } },
"features": [
{ "type": "Feature", "properties": { "fid": 1 }, "geometry": { "type": "Polygon", "coordinates": [ [ [ -74.044223805352445, 40.722497257030909 ], [ -74.044114535841729, 40.723228767698039 ], [ -74.04251191635133, 40.723076945390531 ], [ -74.042238742574582, 40.724567549417955 ], [ -74.045480404725609, 40.724843583537286 ], [ -74.0457717900875, 40.722649080660709 ], [ -74.044223805352445, 40.722497257030909 ] ] ] } }
]
}
