{
"type": "FeatureCollection",
"name": "wardadistrict8",
"crs": { "type": "name", "properties": { "name": "urn:ogc:def:crs:OGC:1.3:CRS84" } },
"features": [
{ "type": "Feature", "properties": { "fid": 1 }, "geometry": { "type": "Polygon", "coordinates": [ [ [ -74.104449355123563, 40.699567396015134 ], [ -74.1058060983476, 40.698325970288145 ], [ -74.107864605308208, 40.697912156571377 ], [ -74.102749527406075, 40.695393749100859 ], [ -74.102390848162941, 40.696162287295422 ], [ -74.101767058174858, 40.696386935247041 ], [ -74.100301151702922, 40.694637025908733 ], [ -74.099069166476482, 40.695748460138468 ], [ -74.100831373192761, 40.697853040116307 ], [ -74.101408378931737, 40.69761657377132 ], [ -74.101657894926959, 40.697155461984423 ], [ -74.101954195171288, 40.697320989659765 ], [ -74.101954195171288, 40.697805746914447 ], [ -74.103997107382213, 40.698716135152402 ], [ -74.10359164388997, 40.699472812012019 ], [ -74.104433760373865, 40.699614687966324 ], [ -74.104449355123563, 40.699567396015134 ] ] ] } }
]
}
