{
"type": "FeatureCollection",
"name": "wardedistrict9",
"crs": { "type": "name", "properties": { "name": "urn:ogc:def:crs:OGC:1.3:CRS84" } },
"features": [
{ "type": "Feature", "properties": { "fid": 1 }, "geometry": { "type": "Polygon", "coordinates": [ [ [ -74.039415946881249, 40.720647741371906 ], [ -74.039124561519344, 40.722110795319644 ], [ -74.036301765826039, 40.721862354463205 ], [ -74.036447458506984, 40.721048014043681 ], [ -74.038250405433658, 40.721324062759727 ], [ -74.038414309699746, 40.720523518329188 ], [ -74.039415946881249, 40.720647741371906 ] ] ] } }
]
}
