{
"type": "FeatureCollection",
"name": "wardddistrict20",
"crs": { "type": "name", "properties": { "name": "urn:ogc:def:crs:OGC:1.3:CRS84" } },
"features": [
{ "type": "Feature", "properties": { "fid": 1 }, "geometry": { "type": "Polygon", "coordinates": [ [ [ -74.049930242713884, 40.749504082187848 ], [ -74.053865177675817, 40.7510767964664 ], [ -74.053074568711722, 40.752197968812339 ], [ -74.052104359191731, 40.752631576577286 ], [ -74.048643718035692, 40.75133300135127 ], [ -74.049930242713884, 40.749504082187848 ] ] ] } }
]
}
