{
"type": "FeatureCollection",
"name": "wardadistrict6",
"crs": { "type": "name", "properties": { "name": "urn:ogc:def:crs:OGC:1.3:CRS84" } },
"features": [
{ "type": "Feature", "properties": { "fid": 1 }, "geometry": { "type": "Polygon", "coordinates": [ [ [ -74.099209519223763, 40.698476716074801 ], [ -74.100301151702894, 40.69971813899253 ], [ -74.09994247245973, 40.700474804470311 ], [ -74.10042590970049, 40.700782197365513 ], [ -74.100394720201095, 40.70123146135294 ], [ -74.101455163180816, 40.701728012761038 ], [ -74.101283620934097, 40.702129980237352 ], [ -74.10172027392575, 40.702271850532178 ], [ -74.102078953168885, 40.70286297350799 ], [ -74.100020446208262, 40.706102234268783 ], [ -74.097961939247639, 40.704151603411098 ], [ -74.099022382227346, 40.703655070070695 ], [ -74.09928749297228, 40.702059044976608 ], [ -74.09715101226314, 40.699469856259782 ], [ -74.099209519223763, 40.698476716074801 ] ] ] } }
]
}
