{
"type": "FeatureCollection",
"name": "wardfdistrict9",
"crs": { "type": "name", "properties": { "name": "urn:ogc:def:crs:OGC:1.3:CRS84" } },
"features": [
{ "type": "Feature", "properties": { "fid": 1 }, "geometry": { "type": "Polygon", "coordinates": [ [ [ -74.082732049117197, 40.711348504708212 ], [ -74.077463106907985, 40.707922720889194 ], [ -74.076417800895257, 40.707626297068991 ], [ -74.075398977921495, 40.709355043105077 ], [ -74.076296083451254, 40.709651443571893 ], [ -74.076463215228728, 40.709470511285552 ], [ -74.07773322058685, 40.710245710775823 ], [ -74.079135497321261, 40.711102340839432 ], [ -74.081711286606208, 40.712806496700445 ], [ -74.082686263255709, 40.711526428959132 ], [ -74.082732049117197, 40.711348504708212 ] ] ] } }
]
}
