{
"type": "FeatureCollection",
"name": "wardddistrict1",
"crs": { "type": "name", "properties": { "name": "urn:ogc:def:crs:OGC:1.3:CRS84" } },
"features": [
{ "type": "Feature", "properties": { "fid": 1 }, "geometry": { "type": "Polygon", "coordinates": [ [ [ -74.030664748616317, 40.733386357676437 ], [ -74.038499383528332, 40.7364591585456 ], [ -74.039035384211587, 40.734151471295903 ], [ -74.038358978333306, 40.733770354765795 ], [ -74.037634228010745, 40.733554871628101 ], [ -74.034945272363146, 40.733396517085922 ], [ -74.034707383990536, 40.733238865071691 ], [ -74.034522147954391, 40.733148034766216 ], [ -74.034342910532217, 40.732922284521905 ], [ -74.034410021915733, 40.732448593746476 ], [ -74.034199620740509, 40.730831253624807 ], [ -74.034298415527132, 40.730257077454603 ], [ -74.031962878149244, 40.7298073878708 ], [ -74.031340125513836, 40.729709147077273 ], [ -74.030942574596153, 40.729680333295534 ], [ -74.028253915225704, 40.730283439644779 ], [ -74.028063503327317, 40.731028269408128 ], [ -74.030847842690449, 40.731271090874166 ], [ -74.030664748616317, 40.733386357676437 ] ] ] } }
]
}
