{
"type": "FeatureCollection",
"name": "wardadistrict7",
"crs": { "type": "name", "properties": { "name": "urn:ogc:def:crs:OGC:1.3:CRS84" } },
"features": [
{ "type": "Feature", "properties": { "fid": 1 }, "geometry": { "type": "Polygon", "coordinates": [ [ [ -74.099178329724339, 40.698494450850788 ], [ -74.101423973681378, 40.697619529605824 ], [ -74.101673489676628, 40.697111124144421 ], [ -74.102078953168856, 40.697170241257886 ], [ -74.101923005671836, 40.69779687943538 ], [ -74.104043891631278, 40.698778206624674 ], [ -74.103544859640834, 40.699440298729961 ], [ -74.10448054462293, 40.699617643712173 ], [ -74.101923005671836, 40.702549678984205 ], [ -74.101689084426312, 40.702218649207012 ], [ -74.101299215683781, 40.702159536573674 ], [ -74.101423973681378, 40.701769391877932 ], [ -74.10042590970049, 40.701272840778316 ], [ -74.100441504450188, 40.700752640417988 ], [ -74.099911282960321, 40.700504361541107 ], [ -74.10030115170288, 40.699759519358011 ], [ -74.099178329724339, 40.698494450850788 ] ] ] } }
]
}
