{
"type": "FeatureCollection",
"name": "wardbdistrict19",
"crs": { "type": "name", "properties": { "name": "urn:ogc:def:crs:OGC:1.3:CRS84" } },
"features": [
{ "type": "Feature", "properties": { "fid": 1 }, "geometry": { "type": "Polygon", "coordinates": [ [ [ -74.078867633659456, 40.723654555664559 ], [ -74.076867544050458, 40.722800191298639 ], [ -74.076867544050458, 40.722593488594761 ], [ -74.075740220816257, 40.72209739948638 ], [ -74.076540256659882, 40.720774477120834 ], [ -74.07412196649625, 40.719630679298973 ], [ -74.074758358644587, 40.718969196890114 ], [ -74.080504070612292, 40.721780451731377 ], [ -74.078867633659456, 40.723654555664559 ] ] ] } }
]
}
