{
"type": "FeatureCollection",
"name": "wardcdistrict29",
"crs": { "type": "name", "properties": { "name": "urn:ogc:def:crs:OGC:1.3:CRS84" } },
"features": [
{ "type": "Feature", "properties": { "fid": 1 }, "geometry": { "type": "Polygon", "coordinates": [ [ [ -74.05522272776787, 40.737157408969296 ], [ -74.052316329950997, 40.735641166993979 ], [ -74.05147859703554, 40.736634719107194 ], [ -74.051138647446663, 40.73708549248753 ], [ -74.050956531595489, 40.737324677122466 ], [ -74.050895826311773, 40.737729449160966 ], [ -74.052253848663128, 40.738508424646504 ], [ -74.052441558040286, 40.738358207687497 ], [ -74.053927704040674, 40.73913591695058 ], [ -74.055257620069739, 40.737187782552333 ], [ -74.05522272776787, 40.737157408969296 ] ] ] } }
]
}
