{
"type": "FeatureCollection",
"name": "wardfdistrict13",
"crs": { "type": "name", "properties": { "name": "urn:ogc:def:crs:OGC:1.3:CRS84" } },
"features": [
{ "type": "Feature", "properties": { "fid": 1 }, "geometry": { "type": "Polygon", "coordinates": [ [ [ -74.079521664303471, 40.715160720136282 ], [ -74.076583818088665, 40.71351162200466 ], [ -74.075932220814721, 40.714120712388564 ], [ -74.074703957120093, 40.713524993991989 ], [ -74.074251308556086, 40.714014987959388 ], [ -74.075493479258398, 40.714707956580789 ], [ -74.074976154819296, 40.715332128050264 ], [ -74.077700185868082, 40.716811536646894 ], [ -74.07818563145338, 40.716462542413581 ], [ -74.079571391160755, 40.715187111692813 ], [ -74.079521664303471, 40.715160720136282 ] ] ] } }
]
}
