{
"type": "FeatureCollection",
"name": "wardbdistrict6",
"crs": { "type": "name", "properties": { "name": "urn:ogc:def:crs:OGC:1.3:CRS84" } },
"features": [
{ "type": "Feature", "properties": { "fid": 1 }, "geometry": { "type": "Polygon", "coordinates": [ [ [ -74.086028747956206, 40.707353103097581 ], [ -74.083317754223955, 40.710789361898897 ], [ -74.088784184208663, 40.714107541560907 ], [ -74.090228566115172, 40.713315909656203 ], [ -74.095517226019055, 40.715993945607003 ], [ -74.101596128766403, 40.717639848675098 ], [ -74.103005125402419, 40.71662912551016 ], [ -74.097042050353551, 40.714683916990161 ], [ -74.096413033998189, 40.714683916990161 ], [ -74.092160883435909, 40.711994858685749 ], [ -74.090223513061389, 40.713101009293133 ], [ -74.085367506797937, 40.709992297908101 ], [ -74.085669434648523, 40.709305691777232 ], [ -74.087028109976131, 40.708065968332122 ], [ -74.086028747956206, 40.707353103097581 ] ] ] } }
]
}
