{
"type": "FeatureCollection",
"name": "wardfdistrict6",
"crs": { "type": "name", "properties": { "name": "urn:ogc:def:crs:OGC:1.3:CRS84" } },
"features": [
{ "type": "Feature", "properties": { "fid": 1 }, "geometry": { "type": "Polygon", "coordinates": [ [ [ -74.082024942661249, 40.708214990808827 ], [ -74.080293993938639, 40.709767974922457 ], [ -74.077461626454493, 40.707860140646162 ], [ -74.076391446692909, 40.707606690805022 ], [ -74.077135740261795, 40.705934420366532 ], [ -74.078018856222087, 40.706582949677895 ], [ -74.078289527192993, 40.7058727142268 ], [ -74.081933453500056, 40.708121488396827 ], [ -74.082024942661249, 40.708214990808827 ] ] ] } }
]
}
