{
"type": "FeatureCollection",
"name": "wardbdistrict11",
"crs": { "type": "name", "properties": { "name": "urn:ogc:def:crs:OGC:1.3:CRS84" } },
"features": [
{ "type": "Feature", "properties": { "fid": 1 }, "geometry": { "type": "Polygon", "coordinates": [ [ [ -74.077420584287168, 40.717200972727404 ], [ -74.075412296240998, 40.718498254600767 ], [ -74.081220356556315, 40.720919779791146 ], [ -74.081813714388133, 40.720201979724216 ], [ -74.078744228681231, 40.718532848437995 ], [ -74.079155014872484, 40.718100424180541 ], [ -74.077420584287168, 40.717200972727404 ] ] ] } }
]
}
