{
"type": "FeatureCollection",
"name": "wardcdistrict22",
"crs": { "type": "name", "properties": { "name": "urn:ogc:def:crs:OGC:1.3:CRS84" } },
"features": [
{ "type": "Feature", "properties": { "fid": 1 }, "geometry": { "type": "Polygon", "coordinates": [ [ [ -74.056591035794071, 40.735437074724672 ], [ -74.061827306728105, 40.739524774861074 ], [ -74.062412527691933, 40.738883443719139 ], [ -74.062571132023194, 40.737658293257574 ], [ -74.061701394628017, 40.737639715463779 ], [ -74.062133548672151, 40.735699148078098 ], [ -74.061224687599534, 40.735666745994081 ], [ -74.061046310743578, 40.736343586149367 ], [ -74.059426737979038, 40.73615029487533 ], [ -74.059784915202286, 40.735103885518242 ], [ -74.056987018526399, 40.734367920466049 ], [ -74.056591035794071, 40.735437074724672 ] ] ] } }
]
}
